{"type":"FeatureCollection","features":[{"type":"Feature","id":"e450dc32-a72f-49f3-87b9-4c68a189b09d","geometry":{"type":"Polygon","coordinates":[[[54, 189],[54, 190],[54, 191],[54, 192],[54, 193],[54, 194],[54, 195],[54, 196],[55, 196],[55, 197],[55, 198],[56, 199],[56, 200],[57, 200],[57, 201],[58, 201],[58, 202],[59, 202],[59, 203],[60, 203],[61, 204],[62, 204],[62, 205],[63, 205],[63, 206],[66, 206],[66, 205],[67, 204],[68, 204],[69, 203],[70, 202],[71, 201],[72, 200],[73, 200],[73, 199],[75, 199],[75, 198],[77, 198],[77, 197],[78, 196],[79, 196],[79, 195],[81, 195],[81, 194],[82, 194],[82, 193],[84, 193],[85, 192],[92, 192],[93, 193],[98, 193],[98, 192],[99, 192],[99, 191],[100, 191],[100, 190],[101, 190],[101, 189],[103, 189],[103, 188],[104, 188],[104, 187],[105, 187],[105, 186],[106, 186],[106, 185],[107, 185],[107, 184],[109, 184],[109, 183],[110, 183],[110, 182],[111, 182],[111, 181],[112, 181],[112, 180],[112, 179],[113, 179],[113, 178],[114, 178],[114, 177],[115, 177],[115, 176],[116, 175],[116, 174],[116, 173],[117, 173],[117, 172],[117, 171],[118, 170],[118, 169],[118, 168],[118, 167],[118, 166],[119, 166],[119, 165],[119, 164],[119, 163],[119, 162],[119, 161],[119, 160],[119, 159],[119, 158],[119, 157],[119, 156],[119, 155],[118, 155],[118, 154],[118, 153],[117, 153],[117, 152],[117, 151],[117, 150],[116, 150],[116, 149],[116, 148],[116, 147],[116, 146],[115, 146],[115, 145],[115, 144],[115, 143],[115, 142],[114, 141],[114, 140],[114, 139],[114, 138],[114, 137],[114, 136],[114, 135],[114, 134],[113, 134],[113, 133],[113, 132],[113, 131],[113, 130],[113, 129],[112, 129],[112, 128],[112, 127],[112, 126],[112, 125],[112, 124],[112, 123],[111, 122],[111, 121],[111, 120],[111, 119],[110, 118],[110, 117],[110, 116],[110, 115],[110, 114],[110, 113],[110, 112],[110, 111],[110, 110],[110, 109],[110, 108],[110, 107],[110, 106],[110, 105],[110, 104],[110, 103],[110, 102],[110, 101],[110, 100],[110, 99],[110, 98],[110, 97],[111, 97],[111, 96],[111, 95],[111, 94],[111, 93],[111, 92],[111, 91],[111, 90],[111, 89],[111, 88],[111, 87],[111, 86],[111, 85],[110, 85],[110, 84],[110, 83],[109, 81],[109, 80],[108, 79],[108, 78],[107, 78],[107, 77],[107, 76],[107, 75],[107, 74],[107, 73],[106, 73],[106, 72],[106, 71],[106, 70],[106, 69],[105, 69],[105, 68],[105, 67],[104, 67],[104, 66],[104, 65],[103, 65],[103, 64],[103, 63],[102, 62],[102, 61],[101, 61],[101, 60],[101, 59],[100, 59],[100, 58],[99, 58],[99, 57],[99, 56],[98, 56],[95, 53],[92, 53],[92, 54],[90, 54],[90, 55],[89, 55],[89, 56],[88, 56],[88, 57],[87, 57],[87, 58],[86, 58],[86, 59],[85, 60],[85, 61],[84, 61],[84, 62],[84, 63],[84, 64],[84, 65],[84, 66],[84, 67],[84, 68],[84, 69],[84, 70],[84, 71],[84, 72],[84, 73],[84, 74],[84, 75],[84, 76],[84, 77],[84, 78],[85, 79],[85, 80],[85, 81],[85, 82],[85, 83],[86, 83],[86, 84],[86, 85],[87, 85],[87, 86],[87, 87],[88, 88],[88, 89],[88, 90],[89, 90],[89, 91],[89, 92],[90, 92],[90, 93],[90, 94],[90, 95],[91, 95],[91, 96],[91, 97],[91, 98],[92, 98],[92, 99],[92, 100],[93, 101],[93, 102],[93, 103],[94, 103],[94, 104],[94, 105],[95, 106],[95, 107],[96, 108],[96, 109],[97, 109],[97, 110],[97, 111],[98, 112],[99, 114],[99, 115],[99, 116],[100, 117],[100, 118],[100, 119],[101, 119],[101, 120],[101, 121],[101, 122],[102, 122],[102, 123],[102, 124],[103, 125],[103, 126],[104, 126],[104, 127],[104, 128],[105, 128],[105, 129],[105, 130],[106, 130],[106, 131],[106, 132],[106, 133],[107, 135],[107, 136],[107, 137],[107, 138],[107, 139],[107, 140],[107, 141],[107, 142],[107, 143],[107, 144],[107, 145],[107, 146],[107, 147],[106, 148],[106, 149],[106, 150],[106, 151],[105, 152],[105, 153],[105, 154],[105, 155],[104, 155],[104, 156],[104, 157],[103, 157],[103, 158],[102, 159],[102, 160],[101, 160],[101, 161],[100, 161],[100, 162],[99, 162],[98, 163],[97, 163],[97, 164],[94, 164],[94, 165],[83, 165],[83, 166],[80, 166],[80, 167],[77, 167],[77, 168],[76, 168],[76, 169],[74, 169],[73, 170],[72, 171],[71, 171],[71, 172],[70, 172],[70, 173],[68, 173],[68, 174],[67, 175],[66, 176],[66, 177],[65, 177],[65, 178],[64, 179],[63, 179],[63, 180],[63, 181],[62, 181],[62, 182],[61, 182],[61, 183],[60, 183],[60, 184],[58, 184],[58, 185],[57, 185],[57, 186],[56, 186],[56, 187],[55, 187],[55, 188],[55, 189],[54, 189]]]},"properties":{"objectType":"annotation"}},{"type":"Feature","id":"9633aded-4fd7-42b5-a871-bac63cb50c71","geometry":{"type":"Polygon","coordinates":[[[160, 82],[160, 83],[160, 84],[160, 85],[160, 86],[160, 87],[160, 88],[160, 89],[160, 90],[160, 91],[160, 92],[161, 93],[161, 94],[161, 95],[162, 95],[162, 96],[163, 96],[163, 97],[164, 97],[164, 98],[165, 98],[165, 97],[165, 96],[165, 95],[166, 95],[166, 94],[166, 93],[167, 93],[167, 92],[167, 91],[168, 91],[168, 90],[168, 89],[169, 89],[169, 88],[169, 87],[170, 86],[170, 85],[171, 85],[171, 84],[171, 83],[172, 83],[172, 82],[173, 82],[173, 81],[173, 80],[174, 80],[174, 79],[174, 78],[174, 77],[174, 76],[174, 75],[174, 74],[173, 74],[173, 73],[173, 72],[173, 71],[173, 70],[173, 69],[173, 68],[172, 68],[172, 67],[172, 66],[171, 66],[171, 65],[171, 64],[171, 63],[170, 63],[169, 62],[169, 61],[167, 61],[167, 60],[164, 60],[164, 61],[164, 62],[164, 63],[163, 63],[163, 64],[163, 65],[163, 66],[163, 67],[163, 68],[163, 69],[163, 70],[163, 71],[162, 71],[162, 72],[162, 73],[162, 74],[162, 75],[162, 76],[162, 77],[162, 78],[161, 78],[161, 79],[161, 80],[161, 81],[161, 82],[160, 82]]]},"properties":{"objectType":"annotation"}},{"type":"Feature","id":"664e4ac8-0dca-4c5d-a5e1-445552de9c8a","geometry":{"type":"Polygon","coordinates":[[[268, 84],[268, 85],[268, 86],[268, 87],[268, 88],[269, 88],[269, 89],[271, 89],[271, 88],[272, 88],[272, 87],[273, 87],[273, 86],[273, 85],[273, 84],[273, 83],[273, 82],[273, 81],[272, 81],[272, 80],[272, 79],[270, 81],[270, 82],[270, 83],[269, 83],[269, 84],[268, 84]]]},"properties":{"objectType":"annotation"}},{"type":"Feature","id":"a26e7d0a-2a06-4883-ad11-48dc922d6bd0","geometry":{"type":"Polygon","coordinates":[[[236, 50],[236, 51],[236, 52],[236, 53],[236, 54],[239, 54],[239, 53],[240, 53],[240, 52],[241, 52],[241, 51],[241, 50],[242, 50],[242, 49],[242, 48],[243, 48],[243, 47],[244, 47],[244, 46],[244, 45],[244, 44],[245, 44],[245, 43],[246, 43],[246, 42],[247, 42],[247, 41],[247, 40],[248, 40],[248, 39],[248, 38],[247, 38],[247, 37],[246, 37],[246, 36],[245, 36],[245, 35],[244, 35],[244, 36],[243, 36],[243, 37],[243, 38],[243, 39],[243, 40],[242, 40],[242, 41],[242, 42],[241, 42],[241, 43],[241, 44],[240, 44],[240, 45],[239, 45],[239, 46],[239, 47],[238, 47],[238, 48],[238, 49],[237, 49],[237, 50],[236, 50]]]},"properties":{"objectType":"annotation"}},{"type":"Feature","id":"bbce3646-46a1-4e4b-9759-205dd7051851","geometry":{"type":"Polygon","coordinates":[[[171, 200],[171, 201],[171, 202],[171, 203],[171, 204],[171, 205],[171, 206],[171, 207],[171, 208],[171, 209],[171, 210],[171, 211],[171, 212],[172, 213],[172, 214],[172, 215],[172, 216],[173, 217],[173, 218],[173, 219],[173, 220],[174, 220],[174, 221],[174, 222],[174, 223],[175, 223],[175, 224],[175, 225],[176, 226],[176, 227],[176, 228],[176, 229],[177, 229],[177, 230],[177, 231],[178, 231],[178, 232],[179, 233],[180, 233],[181, 234],[183, 236],[184, 236],[184, 237],[185, 237],[185, 238],[186, 238],[186, 239],[187, 239],[187, 240],[189, 240],[189, 241],[190, 241],[190, 242],[191, 242],[191, 243],[192, 243],[192, 244],[193, 244],[193, 245],[195, 245],[195, 246],[196, 246],[196, 247],[198, 247],[198, 248],[199, 248],[199, 249],[200, 249],[200, 250],[201, 250],[201, 251],[203, 251],[203, 252],[205, 252],[205, 253],[207, 253],[208, 254],[211, 254],[211, 253],[212, 253],[212, 252],[213, 252],[213, 251],[213, 250],[214, 250],[214, 249],[214, 248],[214, 247],[214, 246],[214, 245],[214, 244],[214, 243],[214, 242],[214, 241],[214, 240],[214, 239],[214, 238],[213, 238],[213, 237],[212, 236],[211, 235],[211, 234],[210, 234],[210, 233],[210, 232],[209, 232],[209, 231],[209, 230],[208, 230],[208, 229],[208, 228],[208, 227],[207, 226],[207, 225],[206, 225],[206, 224],[206, 223],[205, 222],[205, 221],[204, 221],[204, 220],[203, 220],[203, 219],[201, 219],[201, 218],[200, 218],[200, 217],[199, 217],[198, 216],[197, 215],[196, 215],[196, 214],[195, 214],[195, 213],[194, 213],[193, 212],[192, 212],[192, 211],[191, 211],[191, 210],[189, 210],[189, 209],[188, 209],[188, 208],[187, 208],[187, 207],[186, 207],[186, 206],[185, 206],[185, 205],[182, 205],[182, 204],[179, 204],[179, 203],[176, 203],[176, 202],[175, 202],[175, 201],[174, 201],[173, 200],[171, 200]]]},"properties":{"objectType":"annotation"}}]}