{"type":"FeatureCollection","features":[{"type":"Feature","id":"9837f0ef-638d-4587-b5c6-0a9059c96ecb","geometry":{"type":"Polygon","coordinates":[[[45, 243],[45, 245],[46, 246],[46, 247],[49, 247],[49, 248],[51, 248],[53, 250],[54, 250],[54, 251],[66, 251],[66, 250],[69, 250],[69, 249],[71, 249],[71, 248],[74, 248],[74, 247],[76, 247],[76, 244],[75, 244],[75, 243],[74, 243],[73, 242],[70, 240],[65, 240],[65, 239],[63, 239],[63, 238],[61, 238],[61, 239],[58, 239],[57, 238],[56, 238],[55, 237],[53, 237],[53, 238],[51, 238],[50, 239],[49, 239],[45, 243]]]},"properties":{"objectType":"annotation"}},{"type":"Feature","id":"0920cc3d-6df6-42d4-a702-2d3f7f506772","geometry":{"type":"Polygon","coordinates":[[[106, 274],[106, 278],[107, 279],[109, 282],[111, 282],[111, 283],[114, 283],[114, 284],[116, 284],[116, 285],[118, 285],[118, 286],[128, 286],[128, 287],[131, 287],[131, 286],[132, 285],[132, 282],[133, 282],[134, 280],[133, 278],[126, 271],[126, 270],[125, 270],[124, 269],[113, 269],[112, 270],[111, 270],[110, 271],[106, 274]]]},"properties":{"objectType":"annotation"}},{"type":"Feature","id":"32cfa3c5-b933-422e-88a7-cd0b3a5fda52","geometry":{"type":"Polygon","coordinates":[[[139, 236],[139, 240],[140, 241],[140, 242],[142, 243],[142, 244],[144, 244],[144, 245],[147, 245],[147, 244],[148, 244],[148, 243],[149, 243],[149, 241],[148, 241],[147, 239],[147, 238],[146, 238],[146, 237],[145, 237],[145, 235],[144, 235],[143, 234],[141, 234],[139, 236]]]},"properties":{"objectType":"annotation"}},{"type":"Feature","id":"267ed770-d268-415e-a2df-e950d16b4358","geometry":{"type":"Polygon","coordinates":[[[181, 229],[181, 236],[182, 236],[182, 237],[183, 238],[183, 239],[184, 239],[184, 240],[189, 240],[191, 242],[191, 244],[192, 244],[192, 246],[193, 247],[193, 248],[196, 248],[196, 249],[197, 249],[199, 251],[199, 254],[201, 256],[201, 257],[203, 257],[203, 258],[205, 258],[205, 257],[206, 257],[206, 256],[207, 256],[207, 254],[206, 254],[206, 253],[205, 253],[201, 249],[201, 248],[200, 248],[200, 246],[199, 246],[199, 244],[198, 244],[197, 243],[196, 243],[195, 242],[195, 236],[194, 236],[194, 234],[193, 234],[192, 232],[191, 232],[190, 231],[189, 231],[187, 227],[186, 227],[186, 225],[185, 225],[185, 223],[183, 223],[183, 224],[182, 225],[182, 228],[181, 229]]]},"properties":{"objectType":"annotation"}},{"type":"Feature","id":"f3b38796-6719-4133-9bd3-4d0b2fafe531","geometry":{"type":"Polygon","coordinates":[[[245, 275],[245, 277],[246, 278],[246, 279],[247, 279],[248, 280],[250, 280],[252, 278],[252, 277],[253, 277],[253, 272],[252, 272],[251, 271],[250, 271],[250, 270],[247, 270],[247, 271],[246, 272],[246, 275],[245, 275]]]},"properties":{"objectType":"annotation"}},{"type":"Feature","id":"20217cf0-23aa-49f2-91da-c4299e5c44d3","geometry":{"type":"Polygon","coordinates":[[[213, 167],[213, 169],[214, 169],[214, 172],[216, 174],[216, 177],[220, 181],[220, 185],[222, 185],[223, 186],[223, 187],[224, 187],[224, 189],[223, 190],[223, 192],[225, 193],[225, 194],[228, 194],[228, 193],[230, 192],[230, 191],[231, 191],[231, 182],[230, 182],[230, 180],[229, 180],[229, 176],[226, 173],[225, 173],[218, 166],[216, 166],[215, 165],[215, 166],[214, 166],[213, 167]]]},"properties":{"objectType":"annotation"}},{"type":"Feature","id":"b0ba458c-60db-4351-8e86-d0e4da0367c5","geometry":{"type":"Polygon","coordinates":[[[175, 183],[175, 187],[176, 188],[176, 190],[177, 191],[177, 194],[178, 195],[178, 197],[179, 197],[179, 198],[181, 198],[181, 197],[182, 197],[182, 196],[183, 196],[183, 192],[184, 192],[184, 186],[183, 186],[183, 183],[182, 183],[180, 181],[177, 181],[175, 183]]]},"properties":{"objectType":"annotation"}},{"type":"Feature","id":"3d4e9ced-7031-46fc-8daa-15c46a659e89","geometry":{"type":"Polygon","coordinates":[[[114, 166],[114, 169],[115, 169],[115, 171],[116, 171],[116, 174],[117, 175],[117, 177],[121, 181],[121, 182],[122, 183],[122, 184],[123, 184],[126, 187],[126, 188],[127, 188],[127, 187],[128, 186],[129, 186],[129, 184],[130, 184],[130, 178],[129, 178],[129, 175],[128, 175],[128, 174],[127, 173],[127, 169],[126, 169],[126, 161],[127, 161],[127, 160],[126, 160],[126, 157],[125, 157],[125, 154],[124, 154],[122, 152],[118, 152],[118, 153],[117, 154],[117, 156],[115, 158],[115, 165],[114, 166]]]},"properties":{"objectType":"annotation"}},{"type":"Feature","id":"49054adc-3eef-4180-90f4-da4176aba5c7","geometry":{"type":"Polygon","coordinates":[[[58, 184],[58, 191],[59, 192],[59, 193],[61, 195],[62, 195],[62, 196],[67, 196],[67, 195],[70, 195],[70, 194],[71, 194],[71, 193],[73, 191],[74, 191],[74, 190],[75, 190],[75, 185],[74, 185],[74, 182],[73, 182],[72, 181],[64, 181],[64, 182],[61, 182],[60, 183],[58, 184]]]},"properties":{"objectType":"annotation"}},{"type":"Feature","id":"a293a2f8-2445-454c-9df2-4cf9a55650e9","geometry":{"type":"Polygon","coordinates":[[[50, 141],[50, 146],[51, 146],[51, 147],[53, 149],[54, 149],[54, 150],[57, 150],[57, 149],[64, 149],[64, 148],[66, 148],[66, 147],[67, 147],[68, 146],[69, 146],[70, 144],[71, 144],[71, 142],[72, 142],[72, 141],[73, 141],[73, 140],[75, 138],[75, 136],[76, 136],[76, 129],[75, 129],[74, 128],[73, 128],[72, 127],[66, 127],[66, 128],[64, 128],[64, 129],[61, 129],[61, 130],[58, 130],[54, 135],[51, 138],[51, 141],[50, 141]]]},"properties":{"objectType":"annotation"}},{"type":"Feature","id":"e1a5a8cb-1c6d-45eb-9129-315daf9e979a","geometry":{"type":"Polygon","coordinates":[[[144, 133],[144, 134],[145, 135],[148, 139],[149, 139],[149, 140],[152, 140],[152, 139],[154, 138],[155, 138],[155, 137],[156, 137],[157, 136],[158, 136],[158, 134],[157, 134],[157, 131],[156, 131],[156, 130],[155, 130],[152, 127],[150, 127],[150, 128],[149, 128],[145, 131],[145, 133],[144, 133]]]},"properties":{"objectType":"annotation"}},{"type":"Feature","id":"b8387079-cd05-4b90-92c7-36098a50d033","geometry":{"type":"Polygon","coordinates":[[[103, 85],[103, 88],[104, 88],[104, 92],[105, 93],[105, 94],[108, 94],[108, 95],[109, 95],[109, 96],[110, 96],[110, 98],[111, 98],[111, 99],[115, 99],[117, 101],[117, 103],[116, 104],[116, 106],[118, 106],[119, 105],[119, 104],[120, 104],[120, 103],[121, 102],[122, 102],[122, 101],[123, 101],[123, 100],[126, 100],[126, 99],[129, 97],[129, 96],[130, 96],[130, 87],[131, 87],[131, 85],[132, 85],[132, 83],[131, 83],[131, 82],[130, 81],[129, 81],[129, 80],[127, 80],[126, 79],[125, 79],[121, 75],[120, 75],[120, 74],[118, 74],[117, 75],[116, 74],[109, 74],[107, 76],[107, 78],[109, 80],[109, 81],[110, 81],[110, 83],[109, 83],[108, 84],[106, 84],[105, 85],[103, 85]]]},"properties":{"objectType":"annotation"}},{"type":"Feature","id":"dbd7ff88-7d83-40de-9e2d-d0ecfce4bcd5","geometry":{"type":"Polygon","coordinates":[[[164, 58],[164, 59],[165, 60],[165, 61],[167, 63],[167, 64],[169, 64],[169, 65],[171, 65],[174, 68],[174, 69],[175, 69],[175, 70],[176, 71],[176, 72],[179, 72],[179, 71],[182, 71],[182, 69],[183, 69],[183, 68],[182, 68],[182, 66],[181, 65],[181, 64],[179, 64],[177, 62],[175, 62],[175, 61],[173, 61],[173, 60],[171, 60],[171, 59],[170, 59],[169, 58],[168, 58],[167, 57],[166, 57],[166, 56],[165, 56],[165, 58],[164, 58]]]},"properties":{"objectType":"annotation"}},{"type":"Feature","id":"3bcb9b75-120c-4cf2-b6d5-24a4910cc0ab","geometry":{"type":"MultiPolygon","coordinates":[[[[216, 56],[216, 58],[217, 58],[217, 57],[217, 56],[216, 56]]],[[[218, 58],[218, 59],[218, 60],[218, 61],[219, 61],[219, 62],[219, 63],[220, 63],[220, 64],[220, 65],[221, 65],[221, 66],[222, 66],[222, 67],[223, 67],[223, 68],[223, 69],[223, 70],[224, 70],[224, 71],[224, 72],[224, 73],[225, 73],[225, 74],[226, 75],[226, 76],[227, 77],[227, 78],[227, 79],[228, 79],[228, 80],[228, 81],[228, 82],[228, 83],[229, 83],[229, 84],[229, 85],[230, 85],[230, 86],[231, 86],[231, 87],[231, 88],[231, 89],[232, 89],[232, 90],[232, 91],[233, 91],[233, 92],[234, 93],[235, 93],[235, 94],[235, 95],[235, 96],[236, 96],[236, 97],[236, 98],[237, 98],[237, 99],[237, 100],[238, 100],[238, 101],[238, 102],[238, 103],[238, 104],[239, 104],[239, 105],[240, 106],[241, 107],[242, 107],[242, 108],[243, 108],[243, 109],[244, 109],[245, 110],[246, 111],[246, 112],[247, 112],[247, 113],[248, 113],[248, 114],[249, 115],[249, 116],[249, 117],[250, 118],[250, 119],[250, 120],[250, 121],[250, 122],[251, 122],[252, 123],[253, 123],[253, 124],[253, 125],[253, 126],[254, 126],[254, 127],[254, 128],[255, 128],[255, 129],[255, 130],[256, 130],[256, 131],[256, 132],[256, 133],[256, 134],[256, 135],[257, 135],[257, 136],[257, 137],[258, 137],[258, 138],[259, 138],[260, 139],[261, 140],[261, 141],[262, 141],[262, 142],[262, 143],[262, 144],[262, 145],[262, 146],[262, 147],[262, 148],[262, 149],[263, 149],[264, 150],[264, 151],[265, 151],[265, 152],[266, 152],[266, 153],[267, 153],[267, 154],[268, 154],[268, 155],[268, 156],[269, 156],[269, 157],[269, 158],[269, 159],[270, 160],[271, 160],[271, 161],[271, 162],[272, 162],[272, 163],[272, 164],[272, 165],[272, 166],[272, 167],[272, 168],[273, 168],[273, 169],[274, 170],[274, 171],[275, 172],[275, 173],[276, 173],[276, 174],[276, 175],[277, 175],[277, 176],[278, 176],[278, 177],[278, 178],[279, 178],[279, 179],[280, 179],[280, 180],[280, 181],[281, 181],[281, 182],[282, 183],[283, 183],[283, 184],[284, 185],[284, 186],[285, 186],[285, 187],[286, 187],[286, 188],[287, 188],[287, 189],[288, 189],[288, 188],[288, 187],[288, 186],[289, 185],[289, 184],[289, 183],[289, 182],[289, 181],[289, 180],[289, 179],[289, 178],[289, 177],[289, 176],[289, 175],[289, 174],[288, 174],[288, 173],[287, 172],[287, 171],[287, 170],[287, 169],[287, 168],[287, 167],[287, 166],[287, 165],[286, 165],[286, 164],[286, 163],[286, 162],[286, 161],[286, 160],[286, 159],[286, 158],[287, 158],[287, 157],[287, 156],[286, 156],[286, 155],[286, 154],[285, 154],[285, 153],[285, 152],[284, 152],[284, 151],[283, 150],[283, 149],[282, 148],[281, 147],[280, 145],[279, 144],[277, 142],[276, 139],[276, 138],[275, 137],[275, 136],[275, 135],[275, 134],[275, 133],[274, 133],[274, 132],[273, 131],[273, 130],[272, 130],[272, 129],[272, 128],[272, 127],[271, 127],[271, 126],[271, 125],[270, 125],[270, 124],[270, 123],[269, 123],[269, 122],[269, 121],[268, 121],[268, 120],[268, 119],[267, 119],[267, 118],[266, 118],[266, 117],[265, 117],[265, 116],[265, 115],[265, 114],[264, 114],[264, 113],[264, 112],[263, 112],[263, 111],[262, 111],[262, 110],[262, 109],[261, 109],[261, 108],[261, 107],[261, 106],[260, 106],[260, 105],[260, 104],[259, 104],[259, 103],[258, 102],[258, 101],[257, 100],[257, 99],[256, 98],[256, 97],[255, 97],[255, 96],[255, 95],[254, 95],[254, 94],[254, 93],[254, 92],[253, 92],[253, 91],[253, 90],[252, 90],[252, 89],[251, 89],[251, 88],[250, 87],[250, 86],[249, 86],[249, 85],[248, 84],[248, 83],[247, 83],[247, 82],[246, 81],[246, 80],[246, 79],[245, 79],[245, 78],[244, 78],[244, 77],[244, 76],[243, 76],[243, 75],[242, 75],[242, 74],[241, 74],[241, 73],[240, 73],[240, 72],[239, 71],[239, 70],[238, 70],[238, 69],[237, 69],[237, 68],[236, 67],[235, 67],[235, 66],[235, 65],[234, 65],[233, 64],[232, 64],[232, 63],[231, 63],[231, 62],[230, 62],[230, 61],[229, 60],[228, 59],[227, 59],[227, 58],[218, 58]]]]},"properties":{"objectType":"annotation"}}]}