{
  "type": "FeatureCollection",
  "features": [
    {
      "type": "Feature",
      "id": "0111c857-fe35-4405-88f9-504d33f874c7",
      "geometry": {
        "type": "Polygon",
        "coordinates": [
          [
            [88, 130],
            [88, 133],
            [89, 134],
            [89, 135],
            [90, 135],
            [90, 136],
            [92, 136],
            [94, 137],
            [94, 138],
            [93, 139],
            [93, 140],
            [92, 140],
            [92, 142],
            [93, 143],
            [94, 143],
            [95, 144],
            [96, 144],
            [96, 145],
            [98, 145],
            [98, 146],
            [100, 146],
            [100, 147],
            [102, 147],
            [102, 148],
            [106, 148],
            [106, 149],
            [113, 149],
            [113, 148],
            [114, 147],
            [115, 147],
            [115, 146],
            [117, 146],
            [117, 145],
            [120, 145],
            [120, 144],
            [121, 144],
            [121, 141],
            [120, 141],
            [120, 136],
            [121, 136],
            [121, 135],
            [122, 134],
            [123, 134],
            [125, 132],
            [126, 132],
            [126, 130],
            [127, 130],
            [127, 128],
            [131, 124],
            [133, 124],
            [133, 123],
            [135, 122],
            [135, 121],
            [136, 121],
            [136, 120],
            [139, 116],
            [140, 116],
            [140, 114],
            [141, 114],
            [141, 112],
            [142, 111],
            [143, 111],
            [143, 110],
            [144, 110],
            [144, 106],
            [145, 106],
            [145, 104],
            [147, 102],
            [148, 102],
            [148, 101],
            [149, 101],
            [149, 98],
            [148, 98],
            [148, 96],
            [147, 96],
            [147, 94],
            [146, 94],
            [146, 93],
            [145, 92],
            [145, 91],
            [141, 87],
            [141, 86],
            [140, 86],
            [137, 83],
            [136, 83],
            [134, 81],
            [133, 81],
            [133, 80],
            [131, 80],
            [131, 81],
            [128, 81],
            [128, 80],
            [127, 80],
            [127, 81],
            [124, 81],
            [124, 82],
            [123, 82],
            [121, 84],
            [119, 84],
            [119, 85],
            [117, 85],
            [117, 86],
            [115, 86],
            [115, 87],
            [114, 87],
            [113, 88],
            [108, 92],
            [107, 93],
            [106, 93],
            [99, 101],
            [96, 104],
            [96, 106],
            [95, 107],
            [95, 109],
            [94, 110],
            [94, 111],
            [93, 112],
            [93, 113],
            [92, 114],
            [92, 115],
            [91, 115],
            [91, 124],
            [90, 125],
            [90, 128],
            [89, 128],
            [89, 130],
            [88, 130]
          ]
        ]
      },
      "properties": {
        "objectType": "annotation"
      }
    },
    {
      "type": "Feature",
      "id": "15a08e77-1769-4ef9-8d0e-33c9541cbd44",
      "geometry": {
        "type": "Polygon",
        "coordinates": [
          [
            [194, 123],
            [194, 127],
            [195, 128],
            [196, 128],
            [196, 129],
            [198, 129],
            [198, 130],
            [200, 130],
            [200, 131],
            [203, 131],
            [203, 132],
            [206, 132],
            [206, 133],
            [212, 133],
            [212, 134],
            [214, 134],
            [214, 133],
            [221, 133],
            [221, 132],
            [224, 132],
            [224, 131],
            [227, 128],
            [229, 128],
            [229, 127],
            [230, 126],
            [231, 126],
            [231, 125],
            [230, 125],
            [230, 122],
            [229, 122],
            [227, 120],
            [227, 118],
            [226, 118],
            [226, 117],
            [224, 115],
            [221, 115],
            [221, 116],
            [218, 116],
            [216, 114],
            [215, 114],
            [214, 115],
            [211, 115],
            [211, 114],
            [209, 114],
            [206, 117],
            [202, 117],
            [200, 115],
            [199, 115],
            [197, 118],
            [196, 118],
            [195, 119],
            [195, 122],
            [194, 123]
          ]
        ]
      },
      "properties": {
        "objectType": "annotation"
      }
    },
    {
      "type": "Feature",
      "id": "95688a77-9db6-4031-8441-568979e07db0",
      "geometry": {
        "type": "Polygon",
        "coordinates": [
          [
            [225, 183],
            [225, 186],
            [226, 186],
            [226, 187],
            [228, 189],
            [228, 190],
            [230, 192],
            [236, 197],
            [236, 198],
            [238, 198],
            [238, 199],
            [240, 199],
            [240, 200],
            [241, 200],
            [245, 203],
            [245, 204],
            [246, 205],
            [246, 206],
            [249, 208],
            [249, 209],
            [251, 209],
            [251, 210],
            [253, 210],
            [253, 211],
            [255, 211],
            [255, 212],
            [257, 212],
            [257, 213],
            [259, 213],
            [259, 212],
            [260, 212],
            [260, 205],
            [261, 205],
            [261, 203],
            [260, 203],
            [257, 199],
            [257, 197],
            [256, 197],
            [256, 196],
            [251, 191],
            [251, 190],
            [250, 189],
            [250, 188],
            [249, 188],
            [249, 187],
            [248, 187],
            [248, 186],
            [246, 184],
            [244, 184],
            [244, 183],
            [241, 183],
            [241, 182],
            [239, 182],
            [238, 180],
            [236, 180],
            [234, 181],
            [232, 181],
            [232, 182],
            [226, 182],
            [225, 183]
          ]
        ]
      },
      "properties": {
        "objectType": "annotation"
      }
    },
    {
      "type": "Feature",
      "id": "0b46afb7-da80-4e3e-902f-ab7ce410c9fa",
      "geometry": {
        "type": "Polygon",
        "coordinates": [
          [
            [123, 251],
            [123, 261],
            [125, 263],
            [125, 264],
            [131, 264],
            [131, 263],
            [137, 263],
            [137, 262],
            [138, 262],
            [138, 259],
            [139, 259],
            [139, 258],
            [140, 258],
            [140, 257],
            [144, 257],
            [146, 259],
            [147, 259],
            [147, 260],
            [155, 260],
            [155, 259],
            [157, 259],
            [157, 258],
            [159, 258],
            [159, 257],
            [167, 257],
            [167, 256],
            [168, 256],
            [168, 255],
            [169, 255],
            [169, 253],
            [170, 253],
            [170, 251],
            [171, 251],
            [171, 244],
            [170, 244],
            [170, 243],
            [169, 242],
            [168, 240],
            [167, 240],
            [166, 238],
            [165, 237],
            [165, 233],
            [164, 233],
            [163, 231],
            [161, 231],
            [161, 230],
            [159, 230],
            [158, 228],
            [157, 228],
            [157, 227],
            [156, 227],
            [153, 224],
            [151, 224],
            [151, 225],
            [149, 225],
            [148, 226],
            [146, 226],
            [145, 227],
            [143, 227],
            [142, 228],
            [140, 228],
            [140, 229],
            [138, 229],
            [138, 232],
            [137, 233],
            [137, 234],
            [136, 235],
            [135, 235],
            [135, 236],
            [132, 236],
            [132, 235],
            [130, 235],
            [129, 234],
            [127, 234],
            [127, 246],
            [126, 246],
            [126, 248],
            [124, 250],
            [124, 251],
            [123, 251]
          ]
        ]
      },
      "properties": {
        "objectType": "annotation"
      }
    }
  ]
}