{"type":"FeatureCollection","features":[{"type":"Feature","id":"57f27c42-3b2b-4aee-8f73-c04cc28808bd","geometry":{"type":"Polygon","coordinates":[[[85, 217],[85, 218],[85, 219],[85, 220],[85, 221],[85, 222],[85, 223],[85, 224],[86, 224],[86, 225],[86, 226],[86, 227],[86, 228],[86, 229],[86, 230],[86, 231],[89, 231],[89, 232],[90, 233],[91, 234],[92, 235],[100, 235],[100, 234],[102, 234],[103, 233],[105, 233],[105, 232],[109, 232],[110, 231],[113, 231],[113, 230],[115, 230],[115, 229],[117, 229],[117, 228],[119, 228],[119, 227],[121, 227],[121, 226],[122, 226],[122, 225],[123, 225],[123, 224],[124, 223],[125, 222],[125, 221],[126, 221],[126, 220],[127, 220],[127, 219],[128, 218],[129, 218],[129, 217],[130, 217],[130, 216],[132, 216],[132, 215],[133, 214],[133, 213],[134, 213],[134, 212],[134, 211],[135, 211],[136, 210],[138, 210],[138, 209],[140, 209],[140, 208],[142, 208],[142, 207],[144, 207],[144, 206],[146, 206],[146, 205],[149, 205],[150, 204],[151, 204],[151, 203],[152, 203],[153, 202],[154, 202],[154, 201],[165, 201],[165, 200],[173, 200],[173, 199],[177, 199],[177, 198],[179, 198],[180, 197],[181, 197],[181, 196],[182, 196],[183, 195],[185, 195],[185, 194],[188, 194],[189, 193],[190, 193],[190, 192],[192, 192],[192, 191],[195, 191],[195, 190],[198, 190],[198, 189],[199, 189],[199, 188],[199, 187],[200, 187],[200, 186],[201, 185],[201, 184],[202, 184],[202, 183],[203, 183],[204, 182],[204, 181],[205, 181],[205, 180],[206, 180],[206, 179],[207, 179],[207, 178],[208, 177],[209, 176],[209, 175],[210, 175],[211, 174],[212, 174],[212, 173],[213, 172],[213, 171],[214, 171],[214, 170],[219, 170],[219, 171],[220, 171],[220, 170],[220, 169],[220, 168],[220, 167],[220, 166],[220, 165],[220, 164],[220, 163],[221, 163],[221, 162],[222, 162],[222, 161],[223, 160],[223, 159],[223, 158],[223, 157],[223, 156],[225, 156],[225, 155],[225, 154],[226, 153],[226, 152],[227, 151],[227, 150],[227, 149],[227, 148],[228, 148],[228, 147],[229, 147],[229, 146],[230, 145],[231, 144],[231, 143],[231, 142],[231, 141],[232, 141],[232, 140],[232, 139],[232, 138],[232, 137],[232, 136],[232, 135],[232, 134],[232, 133],[232, 132],[232, 131],[232, 130],[232, 129],[232, 128],[232, 127],[231, 127],[231, 126],[231, 125],[231, 124],[231, 123],[231, 121],[231, 120],[233, 119],[233, 118],[233, 117],[233, 116],[232, 116],[232, 115],[231, 115],[231, 114],[229, 114],[229, 113],[228, 113],[227, 112],[225, 112],[225, 111],[224, 111],[224, 110],[222, 110],[222, 109],[218, 109],[217, 110],[216, 110],[216, 111],[216, 112],[215, 112],[215, 113],[214, 113],[214, 114],[214, 115],[213, 115],[213, 116],[212, 116],[212, 117],[211, 118],[210, 119],[210, 120],[210, 121],[209, 121],[209, 122],[209, 123],[208, 123],[208, 124],[207, 124],[206, 125],[206, 126],[205, 126],[205, 127],[205, 128],[205, 129],[205, 130],[204, 130],[204, 131],[204, 132],[203, 132],[203, 133],[203, 134],[202, 135],[202, 136],[201, 137],[201, 138],[201, 139],[200, 139],[200, 140],[200, 141],[200, 142],[199, 142],[199, 143],[198, 143],[198, 144],[197, 144],[196, 145],[195, 145],[195, 146],[194, 146],[194, 147],[194, 148],[193, 148],[193, 149],[192, 150],[192, 151],[191, 151],[191, 152],[190, 152],[190, 153],[189, 154],[189, 155],[189, 156],[189, 157],[188, 158],[188, 159],[188, 160],[187, 160],[187, 161],[187, 162],[187, 163],[187, 164],[186, 164],[186, 165],[186, 166],[186, 167],[185, 167],[185, 168],[184, 168],[183, 169],[183, 170],[182, 170],[182, 171],[181, 171],[181, 172],[180, 172],[179, 173],[179, 174],[177, 174],[177, 175],[176, 175],[176, 176],[175, 176],[175, 177],[174, 177],[174, 178],[173, 178],[173, 179],[172, 179],[172, 180],[171, 180],[171, 181],[170, 182],[169, 183],[168, 183],[167, 184],[166, 184],[166, 185],[165, 185],[165, 186],[163, 186],[163, 187],[161, 187],[161, 188],[160, 188],[160, 189],[159, 189],[158, 190],[157, 190],[157, 191],[156, 191],[156, 192],[153, 192],[153, 193],[150, 193],[150, 194],[145, 194],[145, 195],[131, 195],[131, 196],[130, 196],[129, 197],[127, 197],[127, 198],[121, 198],[121, 199],[117, 199],[116, 200],[115, 200],[114, 201],[110, 201],[110, 202],[109, 202],[108, 203],[108, 204],[107, 204],[107, 205],[106, 205],[105, 206],[104, 206],[104, 207],[103, 207],[103, 208],[100, 208],[100, 209],[97, 209],[97, 210],[94, 210],[94, 211],[93, 211],[93, 212],[92, 213],[91, 213],[91, 214],[89, 214],[89, 215],[88, 215],[87, 216],[86, 216],[86, 217],[85, 217]]]},"properties":{"objectType":"annotation"}}]}