{"type":"FeatureCollection","features":[{"type":"Feature","id":"6ef70def-d6d2-4849-a908-1597bfddd58b","geometry":{"type":"Polygon","coordinates":[[[60, 212],[60, 218],[61, 219],[61, 220],[67, 220],[67, 219],[68, 219],[68, 218],[69, 217],[69, 216],[70, 216],[70, 214],[71, 214],[72, 212],[74, 212],[74, 211],[76, 211],[78, 209],[80, 209],[80, 208],[81, 208],[81, 207],[88, 207],[88, 206],[91, 206],[91, 205],[93, 205],[93, 204],[95, 204],[95, 203],[97, 203],[97, 202],[98, 202],[98, 201],[100, 201],[100, 200],[102, 200],[102, 199],[103, 199],[104, 198],[105, 198],[105, 197],[106, 196],[107, 196],[107, 195],[108, 195],[108, 189],[107, 189],[107, 188],[105, 187],[104, 186],[102, 186],[101, 187],[99, 188],[99, 189],[98, 190],[98, 191],[97, 192],[97, 193],[94, 195],[92, 197],[91, 197],[90, 198],[89, 198],[88, 199],[85, 199],[84, 200],[80, 200],[79, 201],[77, 201],[77, 202],[75, 202],[74, 203],[72, 203],[70, 205],[69, 205],[69, 206],[66, 206],[61, 211],[61, 212],[60, 212]]]},"properties":{"objectType":"annotation"}},{"type":"Feature","id":"02d1535a-3dc9-49c3-a723-312f9b15155a","geometry":{"type":"MultiPolygon","coordinates":[[[[125, 175],[125, 176],[125, 177],[125, 178],[125, 179],[126, 179],[126, 180],[127, 180],[127, 181],[127, 182],[128, 182],[128, 183],[130, 183],[131, 182],[132, 182],[132, 181],[133, 181],[133, 180],[133, 179],[134, 179],[134, 178],[136, 178],[136, 177],[137, 177],[137, 176],[138, 176],[138, 175],[139, 175],[139, 174],[140, 174],[140, 173],[140, 172],[141, 172],[141, 171],[142, 171],[142, 170],[143, 170],[143, 169],[144, 169],[144, 168],[145, 168],[145, 167],[146, 167],[146, 166],[146, 165],[147, 165],[147, 164],[148, 164],[148, 163],[149, 163],[149, 162],[149, 161],[150, 161],[150, 160],[151, 160],[151, 159],[152, 159],[152, 158],[153, 158],[153, 157],[154, 156],[155, 156],[155, 155],[156, 155],[156, 154],[157, 154],[157, 153],[159, 153],[159, 152],[160, 151],[160, 150],[161, 149],[162, 149],[162, 148],[163, 148],[163, 147],[164, 147],[165, 145],[166, 144],[167, 144],[167, 143],[167, 142],[168, 142],[168, 141],[169, 140],[169, 139],[170, 139],[170, 138],[170, 137],[171, 137],[171, 136],[171, 135],[171, 134],[172, 134],[172, 133],[172, 132],[173, 132],[173, 131],[173, 130],[174, 130],[174, 129],[175, 129],[175, 128],[175, 127],[176, 126],[176, 125],[177, 124],[177, 123],[178, 123],[178, 122],[178, 121],[179, 121],[179, 120],[179, 119],[180, 119],[180, 118],[181, 118],[181, 117],[182, 116],[183, 116],[183, 115],[183, 114],[185, 114],[185, 113],[186, 112],[187, 112],[187, 111],[188, 111],[189, 110],[190, 110],[190, 109],[191, 109],[191, 108],[193, 108],[193, 107],[194, 107],[194, 106],[194, 105],[195, 105],[195, 104],[195, 103],[196, 103],[196, 102],[198, 102],[198, 101],[201, 101],[201, 100],[209, 100],[209, 101],[212, 101],[212, 102],[214, 102],[214, 103],[223, 103],[223, 104],[228, 104],[228, 105],[231, 105],[231, 104],[233, 104],[233, 103],[235, 103],[235, 102],[237, 102],[238, 101],[241, 101],[241, 100],[243, 100],[244, 99],[245, 99],[245, 98],[246, 98],[246, 97],[247, 97],[247, 96],[248, 96],[248, 95],[248, 94],[249, 94],[249, 93],[250, 93],[250, 92],[250, 91],[251, 91],[251, 90],[251, 89],[253, 89],[253, 88],[253, 87],[253, 86],[253, 85],[253, 84],[253, 83],[252, 82],[252, 81],[252, 80],[252, 79],[251, 79],[251, 78],[251, 77],[250, 77],[250, 76],[250, 75],[250, 74],[249, 74],[249, 73],[248, 73],[248, 72],[248, 71],[247, 71],[247, 70],[247, 69],[246, 69],[246, 68],[246, 67],[245, 66],[245, 65],[244, 65],[244, 64],[244, 63],[243, 63],[243, 62],[242, 62],[242, 61],[242, 60],[241, 60],[241, 59],[240, 59],[240, 58],[239, 58],[239, 57],[238, 56],[236, 56],[236, 55],[235, 55],[235, 54],[234, 54],[234, 53],[233, 53],[233, 52],[232, 52],[232, 51],[229, 51],[229, 50],[227, 50],[227, 49],[224, 49],[224, 50],[222, 50],[222, 51],[220, 51],[220, 50],[221, 50],[221, 49.29],[215, 51],[219, 51],[219, 52],[217, 52],[217, 53],[216, 53],[216, 54],[215, 55],[214, 56],[213, 56],[213, 57],[212, 58],[211, 59],[210, 59],[210, 60],[209, 60],[209, 61],[209, 62],[208, 62],[208, 63],[207, 63],[207, 64],[206, 64],[206, 65],[205, 65],[205, 66],[205, 67],[203, 67],[203, 68],[202, 69],[202, 70],[201, 70],[201, 71],[201, 72],[200, 73],[200, 74],[199, 74],[199, 75],[199, 76],[198, 76],[198, 77],[198, 78],[197, 78],[197, 79],[196, 79],[196, 80],[195, 80],[195, 81],[194, 82],[194, 83],[193, 84],[193, 85],[192, 85],[192, 86],[191, 87],[190, 88],[190, 89],[190, 90],[189, 90],[189, 91],[189, 92],[188, 93],[188, 94],[188, 95],[188, 96],[187, 96],[187, 97],[186, 98],[186, 99],[186, 100],[185, 100],[185, 101],[185, 102],[184, 102],[184, 103],[183, 104],[183, 105],[182, 105],[182, 106],[182, 107],[181, 107],[181, 108],[180, 108],[180, 109],[179, 110],[179, 111],[179, 112],[178, 112],[178, 113],[177, 113],[177, 114],[176, 115],[176, 116],[175, 116],[175, 117],[174, 117],[174, 118],[173, 118],[173, 119],[172, 119],[172, 120],[171, 121],[171, 122],[171, 123],[170, 123],[170, 124],[170, 125],[169, 125],[169, 126],[168, 126],[168, 127],[168, 128],[167, 128],[167, 129],[167, 130],[166, 130],[166, 131],[165, 131],[165, 132],[164, 133],[164, 134],[163, 134],[162, 135],[161, 135],[161, 136],[160, 137],[160, 138],[158, 138],[158, 139],[157, 139],[157, 140],[156, 140],[156, 141],[155, 141],[155, 142],[154, 142],[154, 143],[153, 143],[153, 144],[152, 145],[151, 145],[151, 146],[151, 147],[150, 147],[150, 148],[150, 149],[149, 149],[149, 150],[148, 151],[148, 152],[148, 153],[147, 153],[147, 154],[146, 154],[146, 155],[145, 155],[145, 156],[144, 157],[144, 158],[143, 158],[143, 159],[143, 160],[142, 160],[141, 161],[140, 162],[140, 163],[139, 163],[139, 164],[138, 164],[138, 165],[137, 165],[137, 166],[136, 166],[136, 167],[135, 167],[135, 168],[134, 168],[134, 169],[133, 169],[133, 170],[132, 170],[132, 171],[130, 171],[130, 172],[128, 172],[128, 173],[127, 173],[127, 174],[126, 174],[126, 175],[125, 175]]],[[[221, 49],[221, 49.29],[222, 49],[221, 49]]]]},"properties":{"objectType":"annotation"}},{"type":"Feature","id":"ae61c1db-fae3-4cbd-b3d9-d0e5fbae8a71","geometry":{"type":"Polygon","coordinates":[[[267, 84],[267, 90],[269, 91],[269, 92],[270, 92],[270, 93],[272, 93],[272, 94],[274, 94],[274, 93],[275, 93],[275, 92],[277, 91],[277, 90],[282, 85],[282, 84],[283, 84],[283, 79],[282, 79],[282, 74],[277, 69],[275, 69],[273, 71],[272, 71],[270, 73],[270, 74],[269, 74],[269, 77],[268, 77],[268, 79],[270, 81],[270, 83],[269, 84],[267, 84]]]},"properties":{"objectType":"annotation"}}]}