{"type":"FeatureCollection","features":[{"type":"Feature","id":"0655cc62-7dd7-4d59-b3a6-c12b19e00248","geometry":{"type":"Polygon","coordinates":[[[52, 111],[52, 112],[52, 113],[52, 114],[52, 115],[52, 116],[52, 117],[52, 118],[52, 119],[52, 120],[52, 121],[52, 122],[52, 123],[52, 124],[52, 125],[52, 126],[53, 128],[53, 129],[53, 130],[53, 131],[53, 132],[53, 133],[53, 134],[53, 135],[53, 136],[53, 137],[54, 138],[54, 139],[54, 140],[54, 141],[54, 142],[54, 143],[55, 144],[55, 145],[55, 146],[55, 147],[56, 148],[56, 149],[56, 150],[57, 151],[57, 152],[57, 153],[57, 154],[57, 155],[58, 155],[58, 156],[58, 157],[58, 158],[59, 158],[59, 159],[59, 160],[59, 161],[60, 161],[60, 162],[60, 163],[61, 163],[61, 164],[61, 165],[62, 165],[62, 166],[63, 166],[63, 167],[63, 168],[64, 168],[64, 169],[64, 170],[65, 170],[65, 171],[66, 172],[66, 173],[67, 173],[67, 174],[67, 175],[68, 175],[68, 176],[69, 176],[69, 177],[69, 178],[70, 178],[70, 179],[71, 179],[71, 180],[73, 180],[76, 182],[78, 182],[79, 183],[80, 183],[81, 184],[83, 184],[83, 185],[90, 185],[90, 184],[91, 184],[91, 183],[92, 183],[92, 182],[93, 182],[93, 181],[93, 180],[94, 180],[94, 179],[94, 178],[95, 178],[95, 177],[96, 176],[97, 174],[97, 173],[98, 172],[98, 171],[99, 170],[99, 169],[99, 168],[100, 168],[100, 167],[100, 166],[101, 166],[101, 165],[102, 164],[102, 163],[103, 163],[103, 162],[103, 161],[103, 160],[104, 159],[104, 158],[104, 157],[104, 156],[105, 155],[105, 154],[105, 153],[105, 152],[106, 152],[106, 151],[106, 150],[106, 149],[106, 148],[106, 147],[106, 146],[106, 145],[106, 143],[106, 142],[106, 141],[106, 140],[106, 139],[106, 138],[106, 137],[106, 136],[105, 136],[105, 133],[105, 132],[105, 131],[104, 131],[104, 130],[104, 129],[104, 128],[104, 127],[104, 126],[103, 124],[103, 123],[103, 122],[103, 121],[103, 120],[103, 119],[103, 118],[103, 117],[102, 117],[102, 116],[102, 115],[102, 114],[101, 114],[101, 113],[100, 112],[100, 111],[99, 111],[99, 110],[99, 109],[98, 109],[98, 108],[97, 107],[97, 106],[97, 105],[97, 104],[96, 104],[96, 103],[95, 103],[95, 102],[94, 102],[94, 101],[94, 100],[94, 99],[93, 99],[93, 98],[93, 97],[92, 97],[92, 96],[92, 95],[91, 95],[91, 94],[90, 94],[90, 93],[89, 93],[89, 92],[88, 91],[88, 90],[86, 90],[86, 89],[85, 89],[85, 88],[84, 88],[83, 87],[83, 86],[82, 86],[82, 85],[81, 85],[80, 84],[71, 84],[71, 85],[70, 85],[69, 86],[68, 86],[67, 87],[66, 87],[66, 88],[64, 88],[64, 89],[62, 89],[62, 90],[60, 90],[60, 91],[59, 91],[59, 92],[58, 93],[58, 94],[57, 94],[57, 95],[57, 96],[56, 97],[56, 98],[56, 99],[55, 99],[55, 100],[55, 101],[55, 102],[55, 103],[54, 103],[54, 104],[54, 105],[54, 106],[54, 107],[54, 108],[53, 108],[53, 109],[53, 110],[53, 111],[52, 111]]]},"properties":{"objectType":"annotation"}},{"type":"Feature","id":"2097ac03-6faa-4caa-b5c9-569af1f58dfe","geometry":{"type":"Polygon","coordinates":[[[147, 138],[147, 139],[147, 140],[147, 141],[147, 142],[148, 142],[148, 143],[149, 144],[149, 145],[149, 146],[149, 147],[149, 148],[149, 149],[150, 149],[150, 150],[150, 151],[150, 152],[150, 153],[150, 154],[151, 154],[151, 155],[151, 156],[151, 157],[152, 157],[152, 158],[152, 159],[152, 160],[152, 161],[153, 162],[153, 163],[153, 164],[154, 164],[154, 165],[154, 166],[155, 166],[155, 167],[155, 168],[156, 169],[156, 170],[157, 171],[157, 172],[158, 172],[158, 173],[158, 174],[159, 174],[159, 175],[160, 175],[160, 176],[161, 176],[161, 177],[167, 177],[167, 176],[168, 176],[168, 175],[169, 175],[169, 174],[170, 174],[170, 173],[170, 172],[171, 172],[171, 171],[171, 170],[171, 169],[172, 169],[172, 168],[172, 167],[172, 166],[172, 165],[172, 164],[172, 163],[172, 162],[172, 161],[172, 160],[172, 159],[172, 158],[172, 157],[172, 156],[172, 155],[172, 154],[172, 153],[172, 152],[172, 151],[172, 150],[172, 149],[171, 149],[171, 148],[171, 147],[171, 146],[171, 145],[171, 144],[171, 143],[170, 142],[170, 141],[170, 140],[170, 139],[170, 138],[170, 137],[169, 137],[169, 136],[169, 135],[168, 135],[168, 134],[168, 133],[167, 133],[167, 132],[167, 131],[166, 130],[166, 129],[165, 129],[165, 128],[165, 127],[164, 127],[164, 126],[164, 125],[164, 124],[163, 124],[163, 123],[163, 122],[162, 121],[151, 121],[151, 122],[149, 122],[149, 123],[149, 124],[148, 124],[148, 125],[148, 126],[148, 127],[148, 128],[148, 129],[148, 130],[148, 131],[148, 132],[148, 133],[148, 134],[148, 135],[148, 136],[148, 137],[148, 138],[147, 138]]]},"properties":{"objectType":"annotation"}},{"type":"Feature","id":"996de231-d1fa-40b5-80a3-e360ac73f792","geometry":{"type":"Polygon","coordinates":[[[242, 131],[242, 132],[242, 133],[242, 134],[243, 134],[243, 135],[244, 135],[244, 136],[246, 136],[246, 137],[249, 137],[250, 136],[250, 135],[251, 135],[251, 134],[251, 133],[251, 132],[251, 131],[252, 131],[252, 130],[252, 129],[252, 128],[252, 127],[252, 126],[252, 125],[251, 125],[251, 124],[251, 123],[250, 123],[250, 122],[248, 122],[248, 123],[247, 123],[247, 124],[246, 124],[244, 128],[244, 129],[243, 129],[243, 130],[243, 131],[242, 131]]]},"properties":{"objectType":"annotation"}}]}