{"type":"FeatureCollection","features":[{"type":"Feature","id":"80a72674-82cd-478b-bfd6-f496b4e6d497","geometry":{"type":"Polygon","coordinates":[[[88, 169],[88, 170],[88, 171],[88, 172],[88, 173],[88, 174],[88, 175],[88, 176],[89, 176],[89, 177],[89, 178],[89, 179],[90, 180],[89, 181],[89, 182],[89, 183],[89, 184],[89, 185],[89, 186],[90, 186],[90, 187],[90, 188],[90, 189],[90, 190],[90, 191],[90, 192],[90, 193],[90, 194],[90, 195],[91, 195],[91, 196],[92, 196],[92, 197],[92, 198],[93, 198],[93, 199],[94, 199],[94, 200],[95, 200],[95, 201],[96, 201],[96, 202],[97, 202],[97, 203],[98, 203],[99, 204],[100, 204],[100, 205],[101, 205],[101, 206],[102, 206],[102, 207],[103, 207],[103, 208],[104, 208],[104, 209],[105, 209],[106, 210],[107, 210],[107, 211],[108, 212],[108, 213],[110, 213],[110, 214],[111, 214],[111, 215],[112, 215],[112, 216],[114, 216],[114, 217],[118, 217],[118, 218],[122, 218],[122, 219],[124, 219],[124, 220],[126, 220],[126, 221],[127, 221],[127, 222],[135, 222],[135, 221],[139, 221],[139, 220],[144, 220],[144, 219],[145, 219],[146, 218],[148, 218],[148, 217],[150, 217],[151, 216],[154, 216],[154, 215],[157, 215],[157, 214],[159, 214],[159, 213],[161, 213],[162, 212],[164, 212],[164, 211],[166, 211],[166, 210],[168, 210],[168, 209],[169, 209],[170, 208],[171, 208],[171, 207],[172, 207],[172, 206],[174, 206],[174, 205],[176, 205],[176, 204],[178, 204],[178, 203],[180, 203],[180, 202],[183, 202],[183, 201],[185, 201],[185, 200],[186, 200],[186, 199],[186, 198],[187, 198],[187, 197],[188, 197],[188, 196],[189, 196],[189, 195],[189, 194],[190, 194],[190, 193],[190, 192],[190, 191],[191, 191],[191, 190],[192, 190],[192, 189],[192, 188],[193, 187],[193, 186],[194, 185],[194, 184],[194, 183],[195, 183],[195, 181],[195, 180],[195, 179],[196, 178],[196, 177],[196, 176],[196, 175],[197, 175],[197, 174],[197, 173],[197, 172],[198, 172],[198, 171],[198, 170],[198, 169],[198, 168],[199, 168],[199, 167],[199, 166],[199, 165],[199, 164],[199, 163],[199, 162],[199, 161],[199, 160],[199, 159],[199, 158],[199, 157],[199, 156],[199, 155],[199, 154],[199, 153],[199, 152],[199, 151],[199, 150],[199, 149],[199, 148],[198, 148],[198, 147],[198, 146],[198, 145],[197, 145],[197, 144],[197, 143],[197, 142],[196, 142],[196, 141],[195, 141],[195, 140],[195, 139],[194, 139],[194, 138],[194, 137],[194, 136],[194, 135],[194, 134],[194, 133],[193, 133],[193, 132],[193, 131],[192, 131],[192, 130],[190, 130],[190, 129],[189, 129],[189, 128],[187, 128],[187, 127],[185, 127],[185, 126],[184, 126],[184, 125],[183, 125],[183, 124],[183, 123],[181, 123],[181, 122],[180, 122],[179, 121],[178, 120],[177, 120],[176, 119],[174, 119],[174, 118],[172, 118],[172, 117],[171, 117],[171, 116],[170, 116],[170, 115],[168, 115],[168, 114],[165, 114],[165, 113],[157, 113],[161.5, 114],[152, 114],[152, 115],[147, 115],[147, 116],[145, 116],[145, 117],[144, 118],[144, 119],[142, 119],[142, 120],[136, 120],[136, 119],[132, 119],[132, 120],[130, 120],[130, 121],[128, 121],[127, 122],[121, 122],[121, 123],[119, 123],[119, 124],[119, 125],[118, 126],[117, 127],[117, 128],[115, 128],[115, 129],[114, 129],[114, 130],[113, 130],[113, 131],[112, 131],[112, 132],[111, 132],[111, 133],[109, 133],[109, 134],[108, 134],[108, 135],[107, 135],[107, 136],[106, 137],[105, 137],[105, 138],[104, 138],[104, 139],[103, 139],[103, 140],[102, 140],[102, 141],[101, 141],[101, 142],[100, 142],[100, 143],[99, 144],[99, 145],[98, 145],[98, 146],[97, 146],[97, 147],[96, 148],[96, 149],[95, 149],[95, 150],[95, 151],[95, 152],[94, 153],[94, 154],[94, 155],[94, 156],[93, 156],[93, 157],[93, 158],[92, 159],[92, 160],[91, 161],[91, 162],[90, 163],[90, 164],[89, 164],[89, 165],[89, 166],[89, 167],[89, 168],[89, 169],[88, 169]],[[164, 114.56],[166, 115],[164, 115],[164, 114.56]]]},"properties":{"objectType":"annotation"}}]}