{"type":"FeatureCollection","features":[{"type":"Feature","id":"94189729-7e22-43ae-a1ae-44c9336db693","geometry":{"type":"Polygon","coordinates":[[[66, 213],[66, 214],[66, 215],[66, 216],[66, 217],[66, 218],[67, 218],[67, 219],[67, 220],[68, 221],[68, 222],[69, 223],[70, 224],[70, 225],[71, 226],[71, 227],[72, 227],[72, 228],[73, 228],[74, 229],[74, 230],[76, 230],[76, 231],[85, 231],[86, 230],[87, 230],[88, 229],[90, 229],[91, 228],[92, 228],[93, 227],[93, 226],[94, 226],[94, 225],[95, 225],[95, 224],[95, 223],[96, 223],[96, 222],[96, 221],[97, 221],[97, 220],[97, 219],[97, 218],[98, 218],[98, 217],[98, 216],[98, 215],[98, 214],[98, 213],[98, 212],[99, 211],[99, 210],[99, 209],[99, 208],[98, 208],[98, 207],[98, 206],[97, 206],[97, 205],[96, 204],[95, 204],[95, 203],[94, 203],[94, 202],[92, 202],[91, 201],[89, 201],[89, 200],[87, 200],[87, 199],[85, 199],[84, 201],[83, 202],[83, 203],[81, 203],[79, 205],[78, 205],[78, 206],[76, 206],[76, 207],[74, 207],[73, 208],[71, 208],[71, 209],[70, 209],[70, 210],[69, 210],[69, 211],[68, 211],[68, 212],[67, 212],[67, 213],[66, 213]]]},"properties":{"objectType":"annotation"}},{"type":"Feature","id":"2192d006-b301-4e93-adab-ab222181fa24","geometry":{"type":"Polygon","coordinates":[[[194, 83],[194, 84],[194, 85],[194, 86],[194, 87],[194, 88],[194, 89],[194, 90],[194, 91],[194, 92],[194, 93],[194, 94],[195, 94],[195, 95],[195, 96],[195, 97],[195, 98],[195, 99],[195, 100],[195, 101],[195, 102],[196, 102],[196, 103],[196, 104],[196, 105],[196, 106],[196, 107],[197, 107],[197, 108],[197, 109],[198, 109],[198, 110],[199, 110],[200, 111],[201, 112],[202, 112],[202, 113],[204, 113],[204, 114],[208, 114],[208, 115],[210, 115],[210, 114],[212, 114],[212, 113],[214, 113],[214, 112],[215, 112],[215, 111],[216, 110],[216, 109],[217, 109],[217, 108],[217, 107],[218, 107],[218, 106],[218, 105],[219, 105],[219, 104],[219, 103],[219, 102],[220, 102],[220, 101],[220, 100],[220, 99],[220, 98],[221, 98],[221, 97],[221, 96],[221, 95],[221, 94],[221, 93],[221, 92],[221, 91],[221, 90],[221, 89],[221, 88],[221, 87],[221, 86],[221, 85],[221, 84],[221, 83],[221, 82],[221, 81],[220, 81],[220, 80],[219, 80],[219, 79],[218, 79],[218, 78],[217, 78],[217, 77],[216, 77],[215, 76],[206, 76],[206, 77],[203, 77],[203, 78],[200, 78],[200, 79],[198, 79],[198, 80],[197, 80],[197, 81],[196, 81],[196, 82],[195, 82],[194, 83]]]},"properties":{"objectType":"annotation"}},{"type":"Feature","id":"03e94d7b-f235-4499-ae8b-6b0c2fbccc91","geometry":{"type":"Polygon","coordinates":[[[75, 79],[75, 80],[75, 81],[75, 82],[76, 83],[77, 84],[78, 85],[79, 86],[80, 87],[81, 87],[82, 88],[83, 88],[83, 89],[85, 89],[86, 90],[88, 90],[89, 91],[91, 91],[91, 90],[92, 90],[92, 89],[93, 89],[93, 88],[94, 87],[94, 86],[95, 84],[95, 83],[96, 83],[96, 82],[97, 81],[97, 80],[98, 80],[98, 79],[98, 78],[99, 77],[99, 76],[99, 75],[99, 74],[99, 73],[99, 72],[99, 71],[98, 71],[98, 70],[98, 69],[98, 68],[97, 68],[97, 67],[96, 67],[96, 66],[95, 66],[94, 65],[85, 65],[85, 66],[83, 66],[82, 67],[81, 68],[81, 69],[80, 69],[80, 70],[79, 71],[79, 72],[78, 72],[78, 73],[77, 74],[77, 75],[77, 76],[76, 76],[76, 77],[76, 78],[75, 79]]]},"properties":{"objectType":"annotation"}}]}