{"type":"FeatureCollection","features":[{"type":"Feature","id":"caa41735-1e5b-4235-9089-df2718c13086","geometry":{"type":"Polygon","coordinates":[[[217, 119],[217, 123],[218, 124],[218, 130],[220, 132],[220, 133],[223, 133],[223, 134],[226, 134],[226, 135],[229, 135],[229, 134],[232, 134],[232, 135],[245, 135],[245, 134],[249, 134],[249, 133],[251, 131],[252, 131],[253, 129],[257, 125],[257, 115],[256, 115],[256, 111],[255, 111],[255, 110],[253, 108],[252, 108],[250, 106],[249, 106],[248, 105],[244, 105],[244, 104],[241, 104],[241, 103],[234, 103],[234, 102],[228, 102],[227, 103],[226, 103],[225, 104],[222, 106],[219, 109],[219, 114],[218, 115],[218, 118],[217, 119]]]},"properties":{"objectType":"annotation"}},{"type":"Feature","id":"e0244684-7475-4a9d-b624-905199526b4a","geometry":{"type":"Polygon","coordinates":[[[157, 39],[157, 41],[158, 41],[158, 42],[159, 43],[159, 45],[160, 45],[160, 47],[161, 48],[161, 49],[162, 50],[162, 51],[163, 52],[163, 54],[164, 54],[164, 56],[165, 57],[165, 58],[169, 62],[169, 63],[174, 67],[175, 67],[175, 68],[180, 68],[180, 69],[183, 69],[183, 68],[188, 68],[188, 67],[189, 67],[191, 66],[191, 65],[195, 65],[195, 64],[196, 63],[197, 63],[197, 62],[196, 62],[196, 59],[197, 59],[197, 58],[198, 58],[198, 57],[199, 55],[200, 55],[200, 52],[201, 52],[201, 37],[200, 37],[200, 35],[199, 34],[199, 32],[198, 32],[198, 30],[197, 30],[197, 29],[195, 27],[195, 26],[193, 26],[192, 24],[189, 24],[189, 23],[185, 23],[184, 22],[177, 22],[177, 23],[173, 23],[173, 24],[172, 24],[171, 25],[170, 25],[169, 26],[167, 26],[167, 27],[164, 27],[164, 28],[163, 28],[160, 31],[160, 33],[159, 33],[159, 36],[158, 37],[158, 38],[157, 39]]]},"properties":{"objectType":"annotation"}},{"type":"Feature","id":"4baf727d-82c1-4aaa-a7d8-19b2642f4e4e","geometry":{"type":"Polygon","coordinates":[[[58, 81],[58, 88],[62, 92],[62, 93],[66, 96],[67, 96],[67, 97],[70, 97],[70, 98],[73, 98],[73, 99],[76, 99],[76, 98],[82, 98],[82, 97],[84, 97],[84, 96],[85, 96],[85, 95],[86, 95],[87, 94],[89, 94],[89, 93],[90, 93],[90, 92],[92, 92],[92, 91],[94, 89],[94, 88],[95, 88],[95, 78],[94, 78],[94, 73],[95, 73],[95, 68],[94, 68],[94, 64],[93, 64],[93, 61],[92, 61],[92, 60],[92, 59],[91, 59],[91, 58],[90, 58],[89, 57],[88, 57],[87, 58],[82, 58],[82, 56],[78, 56],[78, 57],[77, 57],[77, 59],[76, 60],[75, 60],[67, 68],[66, 68],[63, 71],[62, 71],[62, 72],[60, 74],[60, 76],[59, 76],[59, 80],[58, 81]]]},"properties":{"objectType":"annotation"}},{"type":"Feature","id":"1a940f21-34ba-4f3e-8aa8-4a0a47bda4b7","geometry":{"type":"Polygon","coordinates":[[[48, 124],[48, 128],[49, 129],[49, 132],[51, 134],[51, 135],[54, 135],[54, 136],[55, 136],[55, 135],[58, 135],[58, 134],[59, 134],[59, 133],[60, 133],[60, 131],[61, 131],[61, 129],[62, 129],[62, 125],[61, 125],[61, 124],[60, 123],[60, 122],[57, 120],[56, 119],[53, 119],[53, 120],[51, 120],[51, 121],[50, 121],[49, 122],[49, 123],[48, 124]]]},"properties":{"objectType":"annotation"}},{"type":"Feature","id":"83459c0d-51ff-4838-b0ba-4f5da5471985","geometry":{"type":"Polygon","coordinates":[[[26, 185],[26, 188],[28, 190],[28, 192],[29, 192],[29, 193],[33, 197],[33, 198],[35, 198],[35, 199],[46, 199],[46, 198],[48, 196],[48, 195],[49, 195],[49, 193],[50, 192],[50, 191],[51, 191],[51, 187],[50, 187],[50, 185],[49, 185],[49, 184],[46, 181],[43, 181],[42, 182],[36, 182],[36, 183],[33, 183],[32, 184],[29, 184],[29, 185],[26, 185]]]},"properties":{"objectType":"annotation"}},{"type":"Feature","id":"d1baa2b3-671e-43e1-baf9-3878832b93aa","geometry":{"type":"Polygon","coordinates":[[[92, 144],[92, 147],[93, 147],[93, 149],[96, 149],[96, 148],[97, 147],[98, 147],[98, 142],[99, 142],[99, 140],[100, 140],[100, 139],[101, 139],[101, 138],[102, 138],[104, 137],[104, 136],[106, 136],[106, 135],[110, 131],[110, 130],[111, 130],[111, 128],[112, 128],[112, 126],[113, 126],[113, 123],[112, 123],[112, 122],[110, 121],[108, 121],[107, 122],[107, 123],[106, 124],[105, 126],[104, 127],[104, 128],[103, 129],[103, 132],[101, 134],[101, 135],[99, 136],[97, 138],[96, 138],[95, 140],[94, 141],[94, 142],[93, 142],[93, 144],[92, 144]]]},"properties":{"objectType":"annotation"}},{"type":"Feature","id":"e1044e1a-1f88-4c05-816b-7a08e5cc85a4","geometry":{"type":"Polygon","coordinates":[[[149, 120],[149, 123],[151, 125],[151, 126],[155, 126],[155, 124],[156, 124],[156, 117],[155, 117],[155, 116],[153, 116],[149, 120]]]},"properties":{"objectType":"annotation"}},{"type":"Feature","id":"871e362a-1cd9-4e3a-ab65-f4b6faf350ca","geometry":{"type":"Polygon","coordinates":[[[178, 93],[178, 94],[179, 95],[179, 98],[178, 99],[178, 100],[179, 100],[179, 101],[182, 104],[182, 105],[183, 106],[183, 107],[186, 107],[186, 106],[191, 102],[191, 101],[192, 101],[192, 100],[191, 100],[191, 92],[190, 91],[188, 91],[188, 90],[181, 90],[181, 91],[179, 91],[179, 92],[178, 93]]]},"properties":{"objectType":"annotation"}},{"type":"Feature","id":"d517ecaa-081a-47bd-8dc6-65db23a53e3d","geometry":{"type":"Polygon","coordinates":[[[148, 190],[148, 195],[149, 195],[149, 197],[150, 197],[150, 198],[151, 199],[151, 200],[152, 200],[152, 202],[153, 202],[153, 205],[154, 206],[154, 207],[158, 207],[158, 206],[162, 206],[162, 205],[164, 205],[165, 204],[166, 204],[167, 203],[168, 203],[168, 202],[169, 202],[169, 201],[171, 201],[171, 200],[172, 199],[172, 198],[173, 198],[173, 196],[174, 196],[174, 187],[173, 187],[173, 184],[172, 184],[172, 183],[171, 182],[171, 181],[170, 181],[169, 180],[168, 180],[167, 179],[162, 179],[161, 180],[156, 180],[155, 181],[153, 181],[151, 183],[151, 184],[150, 184],[150, 186],[149, 186],[149, 190],[148, 190]]]},"properties":{"objectType":"annotation"}},{"type":"Feature","id":"678563a0-3ffc-454f-ac34-5ea2142f263c","geometry":{"type":"Polygon","coordinates":[[[179, 228],[179, 243],[180, 244],[180, 245],[181, 246],[182, 248],[183, 249],[183, 250],[186, 250],[186, 251],[190, 251],[190, 250],[192, 248],[193, 248],[193, 246],[194, 246],[194, 244],[195, 244],[196, 242],[196, 241],[197, 241],[197, 239],[198, 239],[198, 236],[199, 236],[199, 233],[198, 233],[198, 229],[197, 229],[197, 226],[196, 226],[196, 224],[195, 224],[195, 223],[194, 223],[192, 221],[191, 221],[191, 220],[185, 220],[185, 221],[183, 221],[181, 223],[181, 225],[180, 226],[180, 227],[179, 228]]]},"properties":{"objectType":"annotation"}},{"type":"Feature","id":"ff523e38-9aa6-4bfd-b086-8cd21e179d4d","geometry":{"type":"Polygon","coordinates":[[[152, 239],[152, 251],[153, 251],[153, 253],[154, 253],[154, 255],[156, 257],[156, 258],[157, 258],[157, 257],[158, 257],[159, 256],[159, 255],[160, 255],[160, 253],[161, 253],[161, 249],[162, 249],[162, 246],[161, 246],[161, 244],[160, 244],[160, 243],[158, 241],[157, 241],[155, 239],[152, 239]]]},"properties":{"objectType":"annotation"}},{"type":"Feature","id":"082c8c23-568a-411b-b67d-af7ef8df2fce","geometry":{"type":"Polygon","coordinates":[[[121, 268],[121, 270],[122, 270],[122, 273],[123, 273],[123, 275],[124, 276],[125, 278],[131, 278],[131, 277],[132, 277],[135, 274],[136, 274],[136, 273],[137, 273],[137, 271],[138, 271],[138, 264],[137, 264],[137, 262],[136, 262],[136, 260],[135, 260],[135, 255],[134, 255],[134, 253],[133, 253],[132, 251],[132, 246],[133, 246],[133, 243],[130, 243],[129, 244],[127, 242],[127, 241],[129, 239],[129, 238],[130, 238],[130, 235],[131, 235],[131, 230],[129, 229],[128, 229],[128, 230],[127, 231],[126, 233],[125, 234],[125, 238],[126, 238],[126, 241],[125, 241],[125, 242],[124, 243],[124, 244],[123, 244],[123, 255],[122, 256],[122, 268],[121, 268]]]},"properties":{"objectType":"annotation"}},{"type":"Feature","id":"c052655d-6ab5-4c72-8e12-b159eff57afd","geometry":{"type":"Polygon","coordinates":[[[84, 293],[84, 297],[94, 297],[94, 296],[95, 296],[98, 293],[99, 293],[99, 292],[103, 288],[103, 287],[104, 287],[104, 285],[103, 285],[103, 277],[104, 277],[104, 275],[105, 275],[105, 259],[104, 259],[104, 255],[103, 255],[102, 253],[102, 255],[101, 256],[101, 258],[99, 260],[99, 261],[96, 264],[96, 266],[95, 266],[95, 269],[94, 270],[94, 272],[93, 273],[93, 275],[92, 275],[92, 277],[91, 278],[91, 280],[90, 281],[90, 282],[89, 283],[89, 284],[88, 285],[88, 288],[87, 289],[87, 290],[84, 293]]]},"properties":{"objectType":"annotation"}},{"type":"Feature","id":"f59d1fa5-e249-40fc-a5e5-67f4352d5187","geometry":{"type":"Polygon","coordinates":[[[58, 276],[58, 285],[59, 285],[59, 287],[61, 289],[61, 290],[62, 290],[62, 291],[66, 291],[66, 290],[67, 290],[69, 288],[70, 288],[70, 286],[71, 286],[71, 283],[72, 283],[72, 281],[73, 281],[73, 278],[74, 278],[74, 270],[73, 269],[72, 269],[72, 268],[66, 268],[66, 269],[64, 269],[60, 273],[60, 274],[59, 275],[59, 276],[58, 276]]]},"properties":{"objectType":"annotation"}},{"type":"Feature","id":"74b2d4c5-f9fa-4432-8cf5-bea03046cb3f","geometry":{"type":"Polygon","coordinates":[[[58, 228],[58, 244],[59, 245],[59, 246],[60, 246],[60, 247],[61, 247],[61, 246],[62, 246],[63, 245],[64, 245],[67, 242],[68, 242],[68, 241],[73, 236],[74, 236],[76, 234],[77, 234],[77, 233],[78, 233],[79, 232],[81, 232],[81, 231],[82, 231],[82, 230],[84, 230],[84, 229],[85, 229],[90, 224],[91, 222],[92, 222],[92, 220],[93, 220],[93, 218],[94, 218],[94, 215],[95, 215],[95, 211],[96, 211],[96, 199],[95, 199],[95, 196],[94, 196],[94, 194],[93, 194],[93, 193],[91, 193],[89, 191],[85, 191],[80, 196],[80, 197],[69, 208],[68, 208],[68, 209],[67, 210],[67, 211],[66, 212],[66, 214],[65, 215],[65, 217],[64, 217],[64, 219],[62, 221],[62, 223],[60, 225],[60, 226],[59, 227],[59, 228],[58, 228]]]},"properties":{"objectType":"annotation"}},{"type":"Feature","id":"86965974-c554-4a5e-8d0a-91dbdc79b7af","geometry":{"type":"Polygon","coordinates":[[[9, 254],[9, 257],[11, 258],[13, 257],[14, 257],[14, 256],[16, 254],[17, 254],[17, 253],[18, 252],[18, 251],[19, 250],[19, 249],[20, 249],[20, 247],[21, 247],[21, 246],[22, 245],[22, 244],[23, 244],[23, 242],[24, 242],[24, 240],[25, 240],[27, 238],[27, 237],[28, 237],[28, 236],[29, 236],[29, 233],[30, 233],[30, 232],[31, 232],[31, 231],[33, 228],[34, 228],[34, 227],[35, 227],[35, 225],[36, 225],[36, 222],[35, 221],[34, 221],[33, 222],[32, 222],[31, 223],[30, 223],[29, 224],[26, 224],[25, 223],[25, 214],[26, 213],[26, 212],[25, 212],[23, 214],[22, 214],[21, 215],[21, 223],[22, 224],[22, 228],[21, 229],[21, 230],[19, 232],[19, 233],[18, 233],[18, 235],[17, 235],[17, 237],[16, 238],[16, 240],[17, 240],[17, 243],[14, 246],[13, 246],[12, 247],[12, 248],[11, 249],[11, 251],[10, 251],[10, 254],[9, 254]]]},"properties":{"objectType":"annotation"}},{"type":"Feature","id":"4129c50d-e16e-4f9b-8d29-d44704feb0fa","geometry":{"type":"Polygon","coordinates":[[[214, 192],[214, 193],[214, 194],[214, 195],[214, 196],[214, 197],[214, 198],[214, 199],[214, 200],[214, 201],[214, 202],[215, 202],[215, 203],[215, 204],[215, 205],[215, 206],[215, 207],[216, 208],[216, 209],[216, 210],[216, 211],[216, 212],[216, 213],[216, 214],[216, 215],[216, 216],[216, 217],[217, 217],[217, 218],[217, 219],[217, 220],[218, 221],[218, 222],[218, 223],[218, 224],[218, 225],[219, 225],[219, 226],[219, 227],[220, 228],[220, 229],[221, 229],[221, 230],[221, 231],[222, 231],[223, 232],[224, 233],[225, 233],[225, 234],[225, 235],[226, 235],[227, 236],[227, 237],[229, 237],[229, 238],[230, 239],[231, 239],[231, 240],[232, 240],[232, 241],[233, 241],[233, 242],[234, 242],[234, 243],[235, 243],[236, 244],[237, 244],[237, 245],[238, 245],[238, 246],[239, 246],[239, 247],[240, 247],[241, 248],[242, 248],[243, 249],[244, 249],[244, 250],[245, 250],[246, 251],[247, 251],[247, 252],[249, 252],[249, 253],[250, 253],[251, 254],[252, 254],[252, 255],[260, 255],[260, 254],[263, 254],[263, 253],[264, 253],[264, 252],[266, 252],[266, 251],[268, 251],[268, 250],[269, 250],[269, 249],[269, 248],[270, 248],[271, 247],[272, 246],[274, 246],[273, 245],[272, 245],[272, 244],[273, 244],[273, 243],[274, 242],[274, 241],[275, 241],[275, 240],[276, 240],[276, 239],[276, 238],[276, 237],[277, 237],[277, 236],[277, 235],[277, 234],[277, 233],[278, 233],[278, 232],[278, 231],[278, 230],[278, 229],[278, 228],[278, 227],[277, 227],[277, 226],[277, 225],[277, 224],[277, 223],[276, 223],[276, 222],[276, 221],[276, 220],[276, 219],[275, 219],[275, 218],[275, 217],[274, 216],[274, 215],[273, 215],[273, 214],[272, 214],[272, 213],[272, 212],[272, 211],[272, 210],[272, 209],[272, 208],[272, 206],[272, 205],[272, 204],[272, 203],[272, 202],[270, 202],[270, 201],[269, 201],[269, 200],[269, 199],[268, 198],[268, 197],[267, 196],[267, 195],[267, 194],[267, 193],[266, 193],[266, 192],[266, 191],[265, 191],[265, 190],[265, 189],[264, 188],[264, 187],[264, 186],[263, 186],[263, 185],[263, 184],[263, 183],[262, 183],[262, 182],[261, 182],[261, 181],[261, 180],[260, 180],[260, 179],[259, 179],[259, 178],[258, 178],[258, 177],[257, 177],[257, 176],[256, 176],[256, 175],[255, 175],[255, 174],[254, 174],[254, 173],[253, 173],[253, 172],[252, 172],[252, 171],[250, 171],[250, 170],[249, 170],[249, 169],[247, 169],[247, 168],[246, 168],[246, 167],[244, 167],[243, 166],[241, 166],[241, 167],[240, 167],[240, 168],[238, 168],[238, 169],[234, 169],[233, 170],[231, 170],[231, 171],[230, 171],[229, 172],[228, 172],[228, 173],[227, 173],[227, 174],[226, 174],[226, 175],[225, 175],[225, 176],[224, 176],[224, 177],[223, 177],[223, 178],[222, 178],[222, 179],[222, 180],[220, 180],[220, 181],[219, 181],[219, 182],[219, 183],[218, 183],[218, 184],[217, 184],[217, 185],[216, 185],[216, 186],[216, 187],[216, 188],[216, 189],[215, 190],[215, 191],[215, 192],[214, 192]]]},"properties":{"objectType":"annotation"}},{"type":"Feature","id":"155d7d7b-d524-4b1f-85af-6a2e3c399e96","geometry":{"type":"Polygon","coordinates":[[[1, 3],[1, 26],[2, 27],[2, 29],[7, 34],[7, 35],[9, 37],[11, 37],[11, 38],[15, 38],[15, 39],[20, 39],[20, 38],[23, 38],[23, 37],[27, 37],[27, 36],[31, 36],[31, 35],[33, 35],[33, 34],[38, 34],[38, 33],[39, 33],[39, 32],[42, 30],[48, 25],[48, 24],[51, 22],[52, 22],[52, 21],[53, 21],[53, 20],[54, 19],[55, 19],[57, 16],[58, 16],[65, 9],[66, 9],[66, 8],[67, 7],[67, 4],[66, 4],[66, 2],[65, 2],[65, 1],[3, 1],[3, 2],[2, 2],[2, 3],[1, 3]]]},"properties":{"objectType":"annotation"}}]}