{"type":"FeatureCollection","features":[{"type":"Feature","id":"ba30b2d3-12f8-4f3b-9d24-3177a0592d14","geometry":{"type":"Polygon","coordinates":[[[70, 192],[70, 193],[70, 194],[70, 195],[70, 196],[70, 197],[70, 198],[70, 199],[70, 200],[71, 200],[71, 201],[71, 202],[71, 203],[72, 204],[72, 205],[72, 206],[73, 206],[73, 207],[73, 208],[74, 208],[74, 209],[74, 210],[75, 210],[75, 211],[76, 211],[76, 212],[77, 212],[77, 213],[78, 213],[78, 214],[79, 214],[79, 215],[80, 215],[80, 216],[81, 216],[82, 217],[83, 218],[84, 218],[84, 219],[85, 219],[85, 220],[86, 220],[86, 221],[87, 221],[87, 222],[89, 222],[89, 223],[90, 223],[90, 224],[91, 224],[91, 225],[92, 225],[93, 226],[94, 227],[95, 227],[95, 228],[96, 229],[97, 229],[98, 230],[98, 231],[101, 231],[102, 232],[104, 232],[105, 233],[109, 233],[109, 234],[115, 234],[115, 233],[120, 233],[120, 232],[124, 232],[124, 231],[125, 231],[127, 230],[129, 230],[129, 229],[131, 229],[132, 228],[135, 228],[135, 227],[138, 227],[139, 226],[141, 226],[141, 225],[144, 225],[144, 224],[146, 224],[146, 223],[148, 223],[148, 222],[151, 222],[152, 221],[154, 221],[154, 220],[156, 220],[157, 219],[158, 219],[159, 218],[161, 218],[162, 217],[163, 217],[163, 216],[166, 216],[166, 215],[167, 215],[168, 214],[169, 214],[169, 213],[170, 213],[172, 212],[172, 211],[173, 211],[174, 210],[175, 210],[175, 209],[176, 209],[176, 208],[178, 208],[178, 207],[180, 207],[181, 206],[183, 206],[184, 205],[185, 205],[186, 204],[187, 204],[188, 203],[192, 203],[192, 202],[195, 202],[195, 201],[198, 201],[198, 200],[206, 200],[208, 199],[213, 199],[214, 198],[216, 198],[216, 197],[217, 197],[217, 196],[218, 196],[218, 195],[219, 195],[219, 194],[220, 194],[221, 192],[222, 192],[222, 191],[223, 191],[223, 190],[224, 190],[224, 189],[225, 189],[225, 188],[226, 187],[226, 186],[227, 186],[227, 185],[228, 184],[228, 183],[229, 183],[229, 182],[230, 182],[230, 181],[230, 180],[231, 180],[231, 179],[232, 179],[232, 178],[233, 178],[233, 177],[234, 176],[234, 175],[235, 175],[235, 174],[236, 174],[236, 173],[238, 171],[238, 170],[239, 170],[239, 169],[240, 169],[241, 168],[241, 167],[242, 167],[242, 166],[243, 166],[243, 165],[244, 165],[244, 164],[245, 164],[245, 163],[246, 163],[246, 162],[247, 162],[247, 161],[248, 160],[248, 159],[249, 159],[249, 158],[249, 157],[250, 157],[250, 156],[251, 156],[251, 155],[251, 154],[252, 154],[252, 153],[253, 153],[253, 152],[254, 152],[254, 151],[255, 151],[255, 150],[256, 150],[256, 149],[258, 147],[259, 147],[259, 146],[260, 146],[260, 145],[260, 144],[261, 144],[261, 143],[262, 143],[262, 142],[262, 141],[263, 141],[263, 140],[263, 139],[264, 139],[264, 138],[264, 137],[265, 136],[265, 135],[266, 134],[266, 133],[266, 132],[267, 131],[267, 130],[267, 129],[267, 128],[267, 127],[268, 126],[268, 125],[268, 124],[267, 124],[267, 123],[267, 122],[267, 121],[267, 120],[267, 119],[267, 118],[267, 117],[267, 116],[266, 115],[266, 114],[266, 113],[266, 112],[266, 111],[266, 110],[266, 108],[265, 108],[265, 107],[265, 106],[265, 105],[265, 104],[265, 103],[264, 103],[264, 102],[263, 102],[263, 101],[262, 100],[261, 100],[261, 99],[260, 99],[260, 98],[259, 98],[259, 97],[257, 97],[257, 96],[256, 96],[256, 95],[254, 95],[254, 94],[252, 94],[252, 93],[250, 93],[249, 92],[247, 92],[247, 91],[246, 91],[245, 90],[242, 90],[242, 89],[236, 89],[235, 88],[232, 88],[231, 87],[227, 87],[227, 86],[223, 86],[223, 85],[220, 85],[220, 84],[217, 84],[216, 83],[213, 83],[213, 82],[208, 82],[207, 81],[202, 81],[202, 80],[194, 80],[194, 81],[187, 81],[186, 82],[182, 82],[181, 83],[175, 83],[173, 84],[169, 84],[169, 85],[165, 85],[165, 86],[163, 86],[163, 87],[161, 87],[161, 88],[160, 88],[160, 89],[159, 89],[159, 90],[158, 90],[158, 91],[157, 91],[157, 92],[156, 92],[156, 93],[155, 93],[155, 94],[153, 94],[153, 95],[152, 95],[152, 96],[150, 96],[150, 97],[149, 97],[148, 98],[147, 98],[147, 99],[145, 99],[144, 100],[143, 101],[141, 101],[141, 102],[139, 102],[139, 103],[135, 103],[134, 104],[122, 104],[121, 105],[117, 105],[117, 106],[116, 106],[116, 107],[115, 107],[114, 108],[113, 109],[112, 109],[111, 110],[111, 111],[110, 111],[110, 112],[109, 112],[109, 113],[108, 114],[108, 115],[107, 115],[107, 116],[106, 116],[106, 117],[106, 118],[105, 118],[105, 119],[105, 120],[104, 120],[104, 121],[104, 122],[104, 123],[104, 124],[103, 124],[103, 125],[103, 126],[103, 127],[102, 127],[102, 128],[102, 129],[101, 129],[101, 130],[100, 131],[100, 132],[99, 132],[99, 133],[98, 134],[98, 135],[97, 135],[97, 136],[96, 137],[95, 137],[95, 138],[94, 139],[94, 140],[93, 140],[93, 141],[92, 141],[92, 142],[91, 142],[91, 143],[90, 143],[90, 144],[89, 144],[89, 145],[88, 146],[87, 147],[86, 148],[86, 149],[85, 149],[85, 150],[84, 150],[84, 151],[83, 151],[83, 152],[83, 153],[82, 153],[82, 154],[82, 155],[81, 155],[81, 156],[81, 157],[80, 157],[80, 158],[80, 159],[79, 160],[79, 161],[78, 162],[78, 163],[78, 164],[77, 164],[77, 165],[77, 166],[76, 166],[76, 167],[76, 168],[75, 168],[75, 169],[75, 170],[74, 170],[74, 171],[74, 172],[74, 173],[74, 174],[74, 175],[73, 175],[73, 176],[73, 177],[73, 178],[73, 179],[73, 180],[72, 180],[72, 181],[72, 182],[72, 183],[72, 184],[72, 185],[72, 186],[71, 186],[71, 187],[71, 188],[71, 189],[71, 190],[71, 191],[71, 192],[70, 192]]]},"properties":{"objectType":"annotation"}},{"type":"Feature","id":"6b69f708-a44f-4fa4-9804-aa11af620a4c","geometry":{"type":"Polygon","coordinates":[[[253, 274],[253, 275],[253, 276],[253, 277],[253, 278],[253, 279],[253, 280],[254, 280],[254, 281],[255, 282],[255, 283],[256, 283],[256, 284],[256, 285],[255, 285],[255, 286],[258, 286],[258, 285],[261, 285],[261, 284],[264, 284],[264, 283],[265, 283],[265, 282],[267, 282],[267, 281],[267, 280],[267, 279],[267, 278],[267, 277],[267, 276],[267, 275],[267, 274],[267, 273],[267, 272],[267, 271],[268, 271],[268, 270],[269, 270],[269, 269],[269, 268],[269, 267],[269, 266],[268, 266],[268, 265],[268, 264],[267, 264],[267, 263],[266, 263],[266, 262],[264, 262],[264, 263],[263, 263],[263, 264],[262, 264],[262, 265],[261, 265],[261, 266],[260, 266],[260, 267],[259, 267],[259, 268],[258, 269],[257, 269],[257, 270],[256, 270],[256, 271],[255, 271],[255, 272],[255, 273],[254, 273],[254, 274],[253, 274]]]},"properties":{"objectType":"annotation"}},{"type":"Feature","id":"1b6a2c40-b76c-4e07-ba55-30652eaf79ca","geometry":{"type":"Polygon","coordinates":[[[30, 125],[30, 126],[30, 127],[30, 128],[30, 129],[30, 130],[30, 131],[30, 132],[31, 132],[31, 133],[32, 133],[32, 134],[33, 134],[33, 135],[33, 136],[34, 136],[34, 137],[35, 137],[35, 138],[35, 139],[37, 139],[37, 140],[40, 140],[40, 139],[41, 139],[41, 138],[42, 138],[42, 137],[43, 136],[44, 136],[44, 135],[44, 134],[45, 134],[45, 133],[46, 133],[46, 132],[46, 131],[47, 131],[47, 130],[48, 130],[48, 129],[49, 129],[49, 128],[50, 128],[50, 127],[52, 127],[52, 126],[52, 125],[52, 124],[52, 123],[52, 122],[52, 121],[52, 120],[52, 119],[52, 118],[52, 117],[52, 116],[52, 115],[52, 114],[51, 114],[51, 113],[47, 113],[47, 112],[45, 112],[45, 111],[44, 111],[44, 110],[43, 110],[43, 109],[41, 109],[41, 110],[39, 110],[38, 111],[37, 112],[37, 113],[36, 113],[36, 114],[36, 115],[35, 116],[35, 117],[35, 118],[34, 118],[34, 119],[34, 120],[34, 121],[33, 121],[33, 122],[32, 122],[32, 123],[32, 124],[31, 124],[31, 125],[30, 125]]]},"properties":{"objectType":"annotation"}},{"type":"Feature","id":"80f3f663-f2c9-4149-b77a-53ac8d91be93","geometry":{"type":"Polygon","coordinates":[[[2, 161],[2, 162],[2, 163],[2, 164],[2, 165],[2, 166],[3, 166],[3, 167],[3, 168],[4, 168],[4, 169],[7, 169],[8, 168],[9, 168],[9, 167],[10, 167],[10, 166],[14, 166],[15, 167],[17, 167],[17, 168],[19, 168],[19, 167],[19, 166],[18, 165],[17, 165],[17, 164],[16, 164],[16, 163],[16, 162],[15, 162],[15, 161],[14, 161],[14, 160],[14, 159],[13, 159],[13, 158],[12, 158],[12, 157],[11, 157],[11, 156],[5, 156],[4, 157],[4, 158],[3, 158],[3, 159],[3, 160],[3, 161],[2, 161]]]},"properties":{"objectType":"annotation"}},{"type":"Feature","id":"7ad54807-c443-4c17-b964-cd8152323a77","geometry":{"type":"Polygon","coordinates":[[[0, 132],[0, 133],[0, 134],[0, 135],[0, 136],[1, 136],[1, 137],[1, 138],[2, 138],[2, 139],[4, 139],[4, 138],[5, 138],[5, 137],[5, 136],[5, 135],[5, 134],[5, 133],[5, 132],[5, 131],[4, 131],[4, 130],[4, 129],[3, 129],[3, 128],[1, 128],[1, 129],[1, 130],[1, 131],[1, 132],[0, 132]]]},"properties":{"objectType":"annotation"}},{"type":"Feature","id":"8d64f11d-f5e8-4882-8d1f-1916c4144b5d","geometry":{"type":"Polygon","coordinates":[[[29, 67],[29, 68],[29, 69],[29, 70],[29, 71],[29, 72],[29, 73],[30, 73],[30, 74],[30, 75],[31, 75],[31, 76],[31, 77],[31, 78],[32, 78],[32, 79],[33, 80],[33, 81],[34, 81],[34, 82],[35, 82],[35, 83],[36, 83],[36, 84],[44, 84],[45, 83],[46, 83],[46, 82],[46, 81],[47, 81],[47, 80],[47, 79],[48, 79],[48, 78],[49, 78],[49, 77],[49, 76],[50, 76],[50, 75],[50, 74],[51, 74],[51, 73],[51, 72],[52, 72],[52, 71],[52, 70],[53, 70],[53, 69],[53, 68],[54, 68],[54, 67],[54, 66],[55, 66],[55, 65],[55, 64],[55, 63],[56, 63],[56, 62],[56, 61],[56, 60],[56, 59],[56, 58],[56, 57],[55, 57],[55, 56],[54, 55],[53, 55],[53, 54],[51, 54],[51, 53],[41, 53],[41, 54],[39, 54],[39, 55],[38, 55],[38, 56],[36, 56],[36, 57],[35, 57],[35, 58],[34, 58],[34, 59],[33, 59],[33, 60],[32, 61],[32, 62],[31, 62],[31, 63],[31, 64],[30, 64],[30, 65],[30, 66],[30, 67],[29, 67]]]},"properties":{"objectType":"annotation"}},{"type":"Feature","id":"742825a5-c9fc-405e-9c02-9eac13e98735","geometry":{"type":"Polygon","coordinates":[[[0, 23],[0, 24],[0, 25],[0, 26],[0, 27],[0, 28],[0, 29],[0, 30],[0, 31],[0, 32],[1, 32],[1, 33],[1, 34],[1, 35],[1, 36],[2, 36],[2, 37],[2, 38],[2, 39],[2, 40],[2, 41],[2, 42],[2, 43],[2, 44],[2, 45],[2, 46],[3, 46],[3, 47],[6, 47],[6, 46],[9, 46],[9, 45],[12, 45],[12, 44],[14, 44],[15, 43],[17, 43],[17, 42],[18, 42],[19, 41],[20, 41],[20, 40],[21, 40],[21, 39],[22, 39],[22, 38],[23, 37],[23, 36],[24, 35],[24, 34],[25, 33],[25, 32],[25, 31],[26, 31],[26, 30],[27, 29],[28, 28],[28, 27],[29, 27],[29, 26],[30, 26],[30, 25],[31, 25],[31, 24],[31, 23],[31, 22],[31, 21],[31, 20],[31, 19],[31, 18],[30, 17],[30, 16],[29, 16],[29, 15],[29, 14],[28, 14],[28, 13],[27, 13],[27, 12],[26, 12],[26, 11],[25, 11],[25, 10],[24, 10],[23, 9],[11, 9],[11, 10],[9, 10],[9, 11],[7, 11],[7, 12],[6, 12],[6, 13],[5, 13],[4, 14],[4, 15],[4, 16],[3, 16],[3, 17],[3, 18],[2, 19],[2, 20],[2, 21],[1, 21],[1, 22],[1, 23],[0, 23]]]},"properties":{"objectType":"annotation"}},{"type":"Feature","id":"5fc5e126-adc1-4b94-87e9-d5e763bf5c0b","geometry":{"type":"Polygon","coordinates":[[[138, 46],[138, 47],[138, 48],[138, 49],[139, 49],[140, 50],[141, 50],[142, 51],[151, 51],[151, 50],[153, 50],[154, 49],[155, 49],[155, 48],[156, 48],[156, 47],[158, 47],[158, 46],[160, 46],[160, 45],[162, 45],[162, 44],[163, 44],[163, 43],[165, 43],[165, 42],[167, 42],[167, 41],[168, 41],[168, 40],[169, 40],[169, 39],[170, 39],[170, 38],[170, 37],[170, 36],[170, 35],[169, 35],[169, 34],[159, 34],[159, 33],[152, 33],[152, 32],[150, 32],[150, 33],[148, 33],[148, 34],[147, 34],[147, 35],[146, 36],[145, 36],[145, 37],[145, 38],[144, 38],[143, 39],[143, 40],[142, 40],[142, 41],[141, 42],[141, 43],[140, 43],[140, 44],[139, 44],[139, 45],[139, 46],[138, 46]]]},"properties":{"objectType":"annotation"}},{"type":"Feature","id":"69b6faef-cd58-4d14-bbab-f5e57abe3bee","geometry":{"type":"Polygon","coordinates":[[[71, 0],[71, 2],[71, 3],[71, 4],[71, 5],[71, 6],[72, 6],[72, 7],[72, 8],[72, 9],[72, 10],[72, 11],[73, 12],[73, 13],[73, 14],[73, 15],[73, 16],[74, 16],[74, 17],[74, 18],[75, 18],[75, 19],[76, 19],[76, 20],[78, 20],[78, 21],[79, 21],[79, 22],[80, 22],[80, 23],[91, 23],[91, 22],[91, 21],[91, 20],[91, 19],[92, 19],[92, 18],[92, 17],[92, 16],[93, 16],[93, 15],[93, 14],[93, 13],[93, 12],[93, 11],[93, 10],[93, 9],[93, 8],[93, 7],[93, 6],[92, 6],[92, 5],[91, 4],[91, 3],[90, 2],[90, 1],[76, 1],[76, 0],[71, 0]]]},"properties":{"objectType":"annotation"}},{"type":"Feature","id":"aa52d1a5-a4e5-4991-86c9-98d577271efc","geometry":{"type":"MultiPolygon","coordinates":[[[[205, 0],[205, 1],[206, 2],[207, 3],[208, 3],[208, 4],[210, 4],[210, 5],[211, 5],[211, 6],[212, 6],[212, 7],[214, 7],[215, 8],[216, 8],[217, 9],[221, 9],[222, 8],[225, 8],[226, 7],[232, 7],[232, 6],[234, 6],[234, 5],[236, 5],[236, 4],[237, 4],[238, 3],[238, 2],[233, 2],[232, 1],[221, 1],[221, 0],[205, 0]]],[[[237, 1],[238, 2],[239, 2],[237, 1]]]]},"properties":{"objectType":"annotation"}}]}