{"type":"FeatureCollection","features":[{"type":"Feature","id":"62c1566e-d536-4db0-97b5-b86cac359283","geometry":{"type":"Polygon","coordinates":[[[252, 238],[252, 239],[252, 240],[253, 240],[253, 241],[254, 241],[254, 242],[257, 242],[257, 243],[259, 243],[259, 242],[259, 241],[260, 241],[260, 240],[260, 239],[260, 238],[260, 237],[259, 237],[259, 236],[259, 235],[258, 235],[258, 234],[258, 233],[256, 233],[256, 232],[254, 232],[254, 234],[254, 235],[254, 236],[254, 237],[253, 237],[253, 238],[252, 238]]]},"properties":{"objectType":"annotation"}},{"type":"Feature","id":"b6257198-93b4-42d5-8f9a-d5712e27452b","geometry":{"type":"Polygon","coordinates":[[[220, 201],[220, 202],[220, 203],[220, 204],[220, 205],[220, 206],[220, 207],[220, 208],[220, 209],[220, 210],[221, 211],[222, 212],[223, 212],[223, 213],[225, 213],[225, 214],[229, 214],[229, 215],[234, 215],[234, 214],[235, 214],[235, 213],[236, 213],[236, 212],[237, 212],[237, 211],[238, 211],[238, 210],[239, 210],[239, 209],[239, 208],[239, 207],[239, 206],[239, 205],[239, 204],[239, 203],[238, 203],[238, 202],[237, 202],[237, 201],[236, 201],[236, 200],[235, 200],[235, 199],[233, 199],[233, 198],[232, 198],[232, 197],[225, 197],[224, 198],[222, 198],[222, 199],[221, 199],[221, 200],[221, 201],[220, 201]]]},"properties":{"objectType":"annotation"}},{"type":"Feature","id":"b6b525a8-9cef-4947-b811-700d4519da5f","geometry":{"type":"Polygon","coordinates":[[[208, 165],[208, 166],[208, 167],[208, 168],[209, 168],[209, 169],[210, 169],[210, 170],[211, 170],[211, 171],[212, 172],[212, 173],[214, 173],[214, 174],[217, 174],[217, 175],[227, 175],[227, 174],[228, 174],[228, 173],[228, 172],[229, 172],[229, 171],[229, 170],[228, 170],[228, 169],[228, 168],[228, 167],[228, 166],[228, 165],[228, 164],[227, 164],[227, 163],[226, 163],[226, 162],[225, 162],[225, 161],[224, 161],[224, 160],[223, 160],[223, 159],[215, 159],[215, 160],[214, 160],[214, 161],[212, 161],[212, 162],[211, 162],[211, 163],[210, 163],[210, 164],[209, 164],[209, 165],[208, 165]]]},"properties":{"objectType":"annotation"}},{"type":"Feature","id":"0a29ee1c-6b9d-41b1-b8e2-b5f87e425f21","geometry":{"type":"Polygon","coordinates":[[[40, 160],[40, 162],[40, 163],[40, 164],[40, 165],[40, 166],[40, 167],[40, 168],[41, 169],[41, 170],[41, 171],[41, 172],[41, 173],[41, 174],[42, 174],[42, 175],[42, 176],[43, 177],[43, 178],[43, 179],[44, 180],[44, 181],[45, 181],[45, 182],[46, 183],[46, 184],[47, 184],[48, 186],[49, 187],[49, 188],[50, 189],[50, 190],[51, 191],[51, 192],[52, 192],[52, 193],[53, 194],[54, 195],[54, 196],[55, 197],[55, 198],[56, 198],[56, 199],[56, 200],[57, 200],[57, 201],[58, 201],[58, 202],[58, 203],[59, 203],[59, 204],[60, 204],[60, 205],[61, 206],[62, 207],[63, 208],[63, 209],[64, 209],[64, 210],[65, 211],[65, 212],[66, 212],[66, 213],[67, 213],[67, 214],[68, 214],[68, 215],[68, 216],[69, 216],[69, 217],[69, 218],[70, 218],[70, 219],[71, 219],[71, 220],[72, 221],[73, 222],[73, 223],[74, 223],[74, 224],[75, 224],[76, 225],[76, 226],[78, 226],[78, 227],[79, 227],[79, 228],[80, 228],[81, 229],[82, 229],[82, 230],[84, 230],[85, 231],[99, 231],[99, 230],[101, 230],[102, 229],[106, 229],[107, 228],[107, 227],[108, 227],[108, 226],[109, 226],[109, 225],[110, 224],[110, 223],[111, 223],[111, 222],[111, 221],[111, 220],[112, 220],[112, 219],[112, 218],[112, 217],[112, 216],[113, 216],[113, 215],[113, 214],[113, 213],[114, 211],[114, 210],[114, 209],[114, 208],[115, 207],[115, 206],[115, 205],[115, 204],[115, 203],[115, 202],[115, 201],[115, 200],[115, 199],[115, 198],[115, 197],[115, 196],[115, 195],[116, 194],[116, 193],[116, 192],[116, 191],[116, 190],[117, 190],[117, 189],[117, 188],[117, 187],[118, 187],[118, 186],[119, 185],[119, 184],[119, 183],[120, 183],[120, 182],[120, 181],[121, 181],[121, 180],[121, 179],[121, 178],[122, 178],[122, 177],[122, 176],[122, 175],[123, 174],[123, 173],[123, 172],[123, 171],[123, 170],[124, 170],[124, 169],[124, 168],[124, 166],[124, 165],[125, 165],[125, 164],[125, 163],[125, 162],[125, 161],[126, 161],[126, 160],[126, 159],[126, 158],[127, 158],[127, 157],[127, 156],[127, 155],[127, 154],[127, 153],[127, 152],[127, 151],[127, 150],[127, 149],[127, 148],[126, 147],[126, 146],[126, 145],[126, 144],[125, 143],[125, 142],[124, 141],[124, 140],[123, 140],[122, 139],[121, 138],[120, 138],[120, 137],[119, 137],[118, 136],[118, 135],[117, 135],[117, 134],[116, 134],[116, 133],[114, 133],[114, 132],[112, 132],[112, 131],[111, 131],[111, 130],[110, 130],[109, 129],[108, 129],[108, 128],[107, 128],[106, 127],[105, 127],[104, 126],[103, 126],[103, 125],[101, 125],[101, 124],[100, 124],[99, 123],[96, 123],[96, 122],[93, 122],[92, 121],[89, 121],[88, 120],[85, 120],[84, 119],[82, 119],[82, 118],[81, 118],[79, 119],[78, 119],[77, 120],[66, 120],[66, 121],[63, 121],[62, 122],[59, 122],[59, 123],[55, 123],[54, 124],[53, 124],[52, 125],[49, 125],[49, 126],[48, 126],[48, 127],[47, 127],[46, 128],[46, 129],[46, 130],[45, 130],[45, 131],[45, 132],[44, 133],[44, 134],[43, 134],[43, 135],[43, 136],[42, 137],[42, 138],[42, 139],[42, 140],[42, 141],[42, 142],[42, 143],[42, 144],[42, 145],[42, 146],[42, 147],[42, 148],[42, 149],[42, 150],[41, 150],[41, 151],[41, 152],[41, 153],[41, 154],[41, 155],[41, 156],[41, 157],[41, 158],[41, 159],[40, 160]]]},"properties":{"objectType":"annotation"}},{"type":"Feature","id":"825d7c97-b6bb-4ce0-af69-d1ae9e20afbf","geometry":{"type":"Polygon","coordinates":[[[102, 57],[102, 58],[102, 59],[102, 60],[102, 61],[102, 62],[102, 63],[102, 64],[102, 65],[102, 66],[103, 66],[103, 67],[104, 67],[104, 68],[105, 68],[105, 69],[106, 69],[106, 70],[107, 70],[108, 71],[109, 72],[110, 72],[110, 73],[112, 73],[112, 74],[120, 74],[121, 73],[123, 73],[123, 72],[124, 72],[124, 71],[125, 71],[125, 70],[126, 69],[126, 68],[127, 67],[127, 66],[126, 66],[126, 65],[126, 64],[125, 63],[125, 62],[124, 62],[124, 61],[123, 61],[123, 60],[123, 59],[122, 59],[122, 58],[122, 57],[121, 57],[121, 56],[121, 55],[120, 55],[120, 54],[119, 54],[119, 53],[118, 52],[118, 51],[117, 51],[117, 50],[116, 49],[115, 48],[115, 47],[108, 47],[107, 48],[105, 48],[105, 49],[105, 50],[104, 50],[104, 51],[104, 52],[103, 52],[103, 53],[103, 54],[103, 55],[103, 56],[103, 57],[102, 57]]]},"properties":{"objectType":"annotation"}},{"type":"Feature","id":"c9015856-3045-4fda-af9d-27bf24d3e5e4","geometry":{"type":"Polygon","coordinates":[[[34, 251],[34, 252],[34, 253],[35, 253],[36, 254],[49, 254],[49, 255],[55, 255],[56, 254],[58, 254],[58, 253],[59, 253],[59, 252],[60, 251],[61, 251],[61, 250],[62, 250],[62, 249],[62, 248],[62, 247],[62, 246],[61, 246],[61, 245],[60, 245],[59, 244],[57, 244],[57, 243],[54, 243],[54, 242],[49, 242],[48, 241],[43, 241],[43, 242],[41, 242],[41, 243],[40, 243],[40, 244],[39, 244],[39, 245],[38, 246],[38, 247],[37, 247],[37, 248],[36, 248],[36, 249],[35, 249],[35, 250],[35, 251],[34, 251]]]},"properties":{"objectType":"annotation"}},{"type":"Feature","id":"43d029cd-8d95-4dfc-b47a-674436a85523","geometry":{"type":"Polygon","coordinates":[[[13, 277],[13, 278],[13, 279],[14, 279],[14, 280],[15, 280],[15, 281],[16, 282],[16, 283],[16, 284],[16, 285],[16, 286],[17, 286],[17, 287],[21, 287],[21, 288],[24, 288],[24, 287],[26, 287],[26, 286],[27, 285],[27, 284],[28, 284],[28, 283],[28, 282],[28, 281],[29, 280],[29, 279],[29, 278],[29, 277],[29, 276],[29, 275],[28, 275],[28, 274],[28, 273],[27, 273],[27, 272],[26, 272],[26, 271],[25, 271],[24, 270],[24, 271],[22, 271],[22, 272],[20, 272],[20, 273],[19, 273],[19, 274],[15, 274],[15, 275],[14, 275],[14, 276],[14, 277],[13, 277]]]},"properties":{"objectType":"annotation"}}]}