{"type":"FeatureCollection","features":[{"type":"Feature","id":"c302cdf4-1dcc-453e-9362-fa58ce3f2c43","geometry":{"type":"Polygon","coordinates":[[[58, 80],[58, 84],[59, 84],[59, 85],[61, 87],[61, 88],[62, 89],[62, 90],[63, 91],[63, 92],[68, 92],[68, 91],[69, 91],[69, 90],[71, 90],[71, 89],[73, 87],[74, 87],[74, 85],[75, 85],[75, 83],[76, 83],[76, 81],[77, 81],[77, 78],[78, 78],[78, 76],[79, 76],[79, 72],[78, 71],[78, 70],[77, 70],[77, 68],[75, 66],[73, 66],[73, 67],[71, 67],[70, 68],[66, 68],[62, 72],[62, 73],[61, 74],[61, 75],[60, 75],[60, 77],[59, 77],[59, 80],[58, 80]]]},"properties":{"objectType":"annotation"}},{"type":"Feature","id":"05acb5e8-3b6a-4cb8-ac56-cc58fd64a6e0","geometry":{"type":"Polygon","coordinates":[[[94, 138],[94, 140],[95, 140],[95, 142],[96, 142],[96, 146],[95, 147],[95, 151],[96, 151],[96, 154],[102, 154],[102, 153],[106, 153],[106, 152],[109, 152],[109, 151],[111, 151],[111, 150],[114, 150],[114, 149],[116, 149],[116, 148],[117, 148],[119, 146],[120, 146],[120, 144],[121, 144],[122, 142],[123, 142],[123, 141],[130, 134],[130, 133],[131, 133],[131, 131],[132, 131],[132, 128],[133, 128],[133, 124],[134, 124],[134, 119],[135, 119],[135, 115],[136, 115],[136, 113],[137, 113],[137, 109],[136, 108],[131, 108],[130, 109],[128, 109],[127, 110],[124, 110],[124, 111],[121, 111],[121, 112],[120, 112],[119, 113],[118, 113],[115, 117],[114, 117],[109, 122],[108, 124],[107, 124],[106, 125],[105, 125],[104, 126],[101, 128],[101, 130],[100, 131],[100, 132],[94, 138]]]},"properties":{"objectType":"annotation"}},{"type":"Feature","id":"7dd69bf9-6e48-434c-821d-eac59f220a1a","geometry":{"type":"Polygon","coordinates":[[[170, 207],[170, 209],[171, 210],[171, 211],[172, 212],[172, 216],[173, 216],[173, 218],[175, 220],[175, 221],[178, 224],[178, 225],[186, 225],[186, 224],[198, 224],[198, 225],[203, 225],[203, 226],[209, 226],[209, 225],[210, 224],[211, 224],[216, 219],[216, 218],[218, 217],[219, 217],[219, 216],[220, 215],[221, 215],[222, 214],[222, 213],[224, 211],[225, 209],[226, 209],[227, 207],[228, 207],[228, 201],[227, 201],[227, 199],[226, 198],[226, 197],[225, 197],[225, 195],[224, 195],[224, 193],[223, 193],[223, 192],[222, 192],[222, 190],[221, 190],[221, 187],[220, 187],[220, 186],[219, 186],[217, 184],[215, 183],[214, 182],[213, 182],[212, 181],[208, 181],[208, 182],[204, 182],[204, 183],[194, 183],[192, 185],[190, 185],[189, 186],[187, 186],[186, 187],[185, 187],[180, 192],[180, 193],[178, 195],[178, 197],[177, 198],[177, 200],[170, 207]]]},"properties":{"objectType":"annotation"}}]}