{"type":"FeatureCollection","features":[{"type":"Feature","id":"44729da6-cf6e-46aa-870c-3836ca291ef2","geometry":{"type":"Polygon","coordinates":[[[73, 279],[73, 280],[73, 281],[73, 282],[73, 283],[73, 284],[73, 285],[74, 285],[74, 286],[76, 286],[76, 287],[82, 287],[82, 286],[85, 286],[85, 285],[86, 285],[86, 284],[87, 284],[87, 283],[88, 283],[88, 282],[88, 281],[88, 280],[88, 279],[88, 278],[88, 277],[87, 276],[87, 275],[86, 275],[86, 274],[85, 274],[85, 273],[84, 273],[84, 272],[81, 272],[81, 273],[80, 273],[79, 274],[77, 274],[77, 275],[76, 275],[76, 276],[75, 276],[75, 277],[74, 277],[74, 278],[74, 279],[73, 279]]]},"properties":{"objectType":"annotation"}},{"type":"Feature","id":"2161b6a1-44a0-42a1-8ed2-a6ddaeff7129","geometry":{"type":"Polygon","coordinates":[[[102, 254],[102, 255],[102, 256],[102, 257],[102, 258],[103, 258],[103, 259],[107, 259],[108, 258],[109, 258],[109, 257],[109, 256],[109, 255],[108, 255],[108, 254],[108, 253],[108, 252],[107, 252],[107, 251],[105, 251],[105, 250],[104, 250],[104, 251],[104, 252],[103, 252],[103, 253],[103, 254],[102, 254]]]},"properties":{"objectType":"annotation"}},{"type":"Feature","id":"24dcc4db-b7b5-4f07-b436-067273ef8ec8","geometry":{"type":"Polygon","coordinates":[[[153, 266],[153, 267],[153, 268],[153, 269],[155, 269],[155, 270],[159, 270],[159, 271],[160, 271],[160, 270],[162, 270],[162, 269],[163, 269],[163, 268],[163, 267],[163, 266],[162, 265],[161, 265],[161, 264],[156, 264],[155, 265],[154, 265],[154, 266],[153, 266]]]},"properties":{"objectType":"annotation"}},{"type":"Feature","id":"25728ed3-e3fc-4698-9605-ca494e2e580e","geometry":{"type":"Polygon","coordinates":[[[188, 262],[188, 263],[188, 264],[188, 265],[189, 266],[192, 266],[192, 265],[194, 265],[194, 264],[195, 264],[195, 263],[196, 263],[196, 262],[197, 262],[197, 261],[198, 261],[198, 260],[198, 259],[198, 258],[198, 257],[198, 256],[197, 256],[197, 255],[195, 255],[195, 256],[194, 256],[194, 257],[193, 257],[193, 258],[192, 258],[192, 259],[191, 259],[190, 260],[189, 261],[188, 262]]]},"properties":{"objectType":"annotation"}},{"type":"Feature","id":"4a7f41ee-8465-4aee-836f-b166a065f333","geometry":{"type":"Polygon","coordinates":[[[21, 225],[21, 226],[21, 227],[22, 228],[22, 229],[22, 230],[22, 231],[23, 231],[23, 232],[24, 232],[24, 233],[25, 233],[25, 232],[27, 232],[27, 231],[28, 231],[28, 230],[29, 230],[29, 229],[29, 228],[30, 228],[30, 227],[30, 226],[30, 225],[30, 224],[30, 223],[23, 223],[23, 224],[22, 224],[22, 225],[21, 225]]]},"properties":{"objectType":"annotation"}},{"type":"Feature","id":"36afbfa2-74c4-4c25-afba-8ab4aa1c56de","geometry":{"type":"Polygon","coordinates":[[[156, 220],[156, 221],[156, 222],[156, 223],[157, 223],[157, 224],[161, 224],[161, 223],[163, 223],[163, 222],[163, 221],[163, 220],[164, 220],[164, 219],[164, 218],[163, 218],[163, 217],[163, 216],[162, 216],[162, 215],[160, 215],[160, 216],[159, 216],[159, 217],[158, 217],[158, 218],[158, 219],[157, 219],[157, 220],[156, 220]]]},"properties":{"objectType":"annotation"}},{"type":"Feature","id":"5c7688c9-294e-4911-b394-6182a370c8dd","geometry":{"type":"Polygon","coordinates":[[[67, 157],[67, 158],[67, 159],[67, 160],[67, 161],[67, 162],[67, 163],[68, 163],[68, 164],[68, 165],[69, 165],[69, 166],[70, 166],[70, 167],[71, 167],[71, 168],[72, 169],[73, 169],[73, 170],[74, 170],[75, 171],[75, 172],[76, 172],[76, 173],[77, 173],[77, 174],[77, 175],[78, 175],[78, 176],[78, 177],[79, 177],[79, 178],[81, 178],[81, 179],[84, 179],[84, 178],[85, 178],[86, 177],[86, 176],[86, 175],[86, 174],[86, 173],[86, 172],[86, 171],[86, 170],[86, 169],[86, 168],[86, 167],[86, 166],[86, 165],[86, 164],[86, 163],[86, 162],[86, 161],[86, 160],[86, 159],[85, 159],[85, 158],[85, 157],[85, 156],[84, 156],[84, 155],[83, 155],[83, 154],[82, 153],[81, 153],[81, 152],[79, 152],[79, 151],[77, 151],[77, 150],[73, 150],[73, 151],[72, 151],[71, 152],[70, 152],[70, 153],[69, 154],[69, 155],[68, 155],[68, 156],[68, 157],[67, 157]]]},"properties":{"objectType":"annotation"}},{"type":"Feature","id":"62eab13f-b504-41d7-8d71-03c4e47cc362","geometry":{"type":"Polygon","coordinates":[[[268, 167],[268, 168],[268, 169],[268, 170],[268, 171],[268, 172],[268, 173],[270, 173],[270, 172],[270, 171],[270, 170],[270, 169],[270, 168],[270, 167],[270, 166],[269, 166],[269, 167],[268, 167]]]},"properties":{"objectType":"annotation"}},{"type":"Feature","id":"7118b992-a586-429d-92d9-d05c8bb32718","geometry":{"type":"Polygon","coordinates":[[[169, 90],[169, 91],[170, 91],[170, 92],[171, 92],[171, 93],[171, 94],[173, 94],[173, 95],[174, 95],[174, 96],[175, 96],[175, 97],[176, 97],[177, 98],[178, 98],[178, 99],[180, 100],[183, 100],[184, 101],[188, 101],[188, 102],[193, 102],[193, 103],[196, 103],[196, 104],[200, 104],[202, 105],[204, 105],[205, 106],[207, 106],[208, 107],[212, 107],[212, 108],[220, 108],[220, 109],[233, 109],[233, 108],[239, 108],[239, 107],[242, 107],[242, 106],[244, 106],[245, 105],[247, 105],[247, 104],[249, 104],[250, 103],[251, 103],[252, 102],[251, 102],[250, 101],[248, 101],[248, 100],[243, 100],[243, 99],[239, 99],[239, 98],[233, 98],[233, 97],[229, 97],[228, 96],[227, 96],[226, 95],[223, 95],[223, 94],[220, 94],[220, 93],[218, 93],[218, 92],[217, 92],[216, 91],[215, 91],[215, 90],[214, 90],[214, 89],[212, 89],[212, 88],[209, 88],[208, 87],[205, 87],[205, 86],[203, 86],[203, 85],[200, 85],[200, 84],[196, 84],[196, 83],[180, 83],[185, 84],[181, 84],[181, 85],[176, 85],[176, 86],[174, 86],[174, 87],[171, 87],[171, 88],[170, 88],[170, 89],[170, 90],[169, 90]]]},"properties":{"objectType":"annotation"}},{"type":"Feature","id":"546b22c6-5592-417a-801d-0769d676ee0d","geometry":{"type":"Polygon","coordinates":[[[177, 32],[177, 33],[177, 34],[177, 35],[177, 36],[177, 37],[177, 38],[178, 38],[178, 39],[178, 40],[178, 41],[178, 42],[178, 43],[178, 44],[179, 44],[179, 45],[179, 46],[179, 47],[180, 47],[180, 48],[184, 48],[184, 47],[184, 46],[185, 46],[185, 45],[186, 45],[186, 44],[186, 43],[187, 43],[187, 42],[187, 41],[188, 41],[188, 40],[188, 39],[188, 38],[189, 38],[189, 37],[189, 36],[189, 35],[189, 34],[189, 33],[189, 32],[188, 32],[188, 31],[187, 31],[187, 30],[186, 30],[186, 29],[180, 29],[180, 30],[179, 30],[178, 31],[178, 32],[177, 32]]]},"properties":{"objectType":"annotation"}},{"type":"Feature","id":"d4e2bb29-0b3a-4f96-aa7d-e2f910cf05e6","geometry":{"type":"Polygon","coordinates":[[[271, 2],[272, 3],[272, 4],[272, 5],[272, 6],[272, 7],[272, 8],[272, 9],[272, 10],[273, 10],[273, 11],[274, 11],[274, 12],[275, 12],[275, 11],[277, 11],[277, 10],[278, 10],[278, 9],[279, 9],[279, 8],[280, 8],[280, 7],[281, 6],[281, 5],[281, 4],[281, 3],[280, 3],[280, 2],[279, 2],[279, 1],[273, 1],[273, 2],[271, 2]]]},"properties":{"objectType":"annotation"}},{"type":"Feature","id":"da213f08-ad68-4f16-bfb5-dbe2ca699c0c","geometry":{"type":"Polygon","coordinates":[[[122, 95],[122, 96],[123, 96],[123, 97],[125, 97],[125, 98],[128, 98],[128, 97],[128, 96],[126, 96],[126, 95],[122, 95]]]},"properties":{"objectType":"annotation"}},{"type":"Feature","id":"a41bbc3d-a6c1-45db-91ad-ef678d11ffc8","geometry":{"type":"Polygon","coordinates":[[[149, 86],[149, 87],[149, 88],[150, 88],[150, 89],[150, 90],[150, 91],[153, 91],[153, 92],[158, 92],[158, 91],[156, 91],[156, 90],[153, 90],[153, 89],[152, 89],[152, 88],[151, 88],[151, 87],[150, 87],[150, 86],[149, 86]]]},"properties":{"objectType":"annotation"}},{"type":"Feature","id":"acd9c153-7731-4d50-93e5-bce601fb3e74","geometry":{"type":"Polygon","coordinates":[[[27, 39],[27, 40],[27, 41],[29, 41],[29, 42],[30, 42],[30, 41],[31, 41],[31, 40],[31, 39],[31, 38],[31, 37],[30, 37],[30, 36],[28, 36],[29, 37],[28, 37],[28, 38],[28, 39],[27, 39]]]},"properties":{"objectType":"annotation"}},{"type":"Feature","id":"c1124e65-7cc5-4296-8f8f-1df0c27f2348","geometry":{"type":"MultiPolygon","coordinates":[[[[12, 22],[12, 23],[12, 24],[14, 24],[14, 23],[15, 23],[15, 22],[17, 22],[17, 21],[18, 21],[18, 20],[18, 19],[16, 19],[16, 20],[14, 20],[14, 21],[14, 22],[12, 22]]],[[[18, 18],[18, 19],[19, 19],[19, 18],[18, 18]]]]},"properties":{"objectType":"annotation"}},{"type":"Feature","id":"55d66ab6-c996-4f28-9ee3-4dab378ef5eb","geometry":{"type":"Polygon","coordinates":[[[87, 1],[87, 2],[87, 3],[87, 4],[87, 5],[88, 5],[88, 4],[90, 4],[90, 3],[89, 3],[89, 2],[88, 2],[88, 1],[87, 1]]]},"properties":{"objectType":"annotation"}}]}