{"type":"FeatureCollection","features":[{"type":"Feature","id":"e1f110a2-2885-4ee1-b35e-50040b179a18","geometry":{"type":"Polygon","coordinates":[[[59, 237],[59, 238],[59, 239],[59, 240],[59, 241],[59, 242],[59, 243],[59, 244],[60, 244],[60, 245],[60, 246],[60, 247],[63, 247],[63, 246],[64, 246],[64, 245],[65, 245],[66, 244],[67, 244],[67, 243],[68, 243],[68, 242],[69, 242],[69, 241],[71, 241],[71, 240],[72, 240],[72, 239],[73, 239],[73, 238],[74, 238],[74, 237],[75, 237],[75, 236],[76, 236],[76, 235],[77, 234],[77, 233],[78, 233],[78, 232],[79, 231],[79, 230],[79, 229],[80, 229],[80, 228],[80, 227],[81, 227],[81, 226],[81, 225],[81, 224],[82, 223],[82, 222],[82, 221],[82, 220],[83, 220],[83, 219],[83, 218],[83, 217],[84, 217],[84, 216],[84, 215],[84, 214],[84, 213],[85, 213],[85, 212],[85, 211],[85, 210],[85, 209],[85, 208],[85, 207],[85, 206],[85, 205],[85, 204],[85, 203],[85, 202],[84, 202],[84, 201],[84, 200],[84, 199],[83, 199],[83, 198],[83, 197],[82, 196],[82, 195],[80, 193],[79, 193],[78, 192],[75, 192],[75, 193],[74, 194],[73, 194],[73, 195],[73, 196],[72, 196],[72, 197],[72, 198],[71, 199],[71, 200],[70, 201],[70, 202],[70, 203],[69, 203],[69, 204],[68, 204],[68, 205],[68, 206],[67, 206],[67, 207],[66, 207],[66, 208],[66, 209],[65, 209],[65, 210],[64, 210],[64, 211],[64, 212],[63, 212],[63, 213],[62, 213],[62, 214],[62, 215],[62, 216],[61, 216],[61, 217],[61, 218],[61, 219],[61, 220],[61, 221],[60, 222],[60, 223],[60, 224],[60, 225],[60, 226],[60, 227],[60, 228],[60, 229],[60, 230],[60, 231],[60, 232],[60, 233],[60, 234],[60, 235],[60, 236],[59, 237]]]},"properties":{"objectType":"annotation"}},{"type":"Feature","id":"0c933f3b-dae4-47ed-ba61-ab8a86fe8a69","geometry":{"type":"Polygon","coordinates":[[[175, 246],[175, 247],[175, 248],[175, 249],[175, 250],[175, 251],[175, 252],[175, 253],[175, 254],[176, 255],[176, 256],[177, 256],[177, 257],[178, 257],[179, 258],[181, 258],[181, 259],[183, 259],[184, 260],[186, 260],[187, 261],[192, 261],[193, 260],[194, 260],[194, 259],[194, 258],[194, 257],[195, 257],[195, 256],[195, 255],[195, 254],[195, 253],[195, 252],[195, 251],[195, 250],[194, 250],[194, 249],[194, 248],[194, 247],[193, 247],[193, 246],[193, 245],[192, 245],[192, 244],[192, 243],[191, 243],[191, 242],[190, 242],[190, 241],[189, 241],[189, 240],[187, 240],[187, 239],[186, 239],[186, 238],[184, 238],[182, 239],[181, 239],[181, 240],[179, 240],[179, 241],[178, 241],[178, 242],[177, 242],[177, 243],[176, 244],[176, 245],[176, 246],[175, 246]]]},"properties":{"objectType":"annotation"}},{"type":"Feature","id":"980d5ec4-73fd-4f5f-b019-21a7b9951e50","geometry":{"type":"Polygon","coordinates":[[[223, 158],[223, 159],[223, 160],[223, 161],[223, 162],[223, 163],[223, 164],[224, 165],[224, 166],[224, 167],[224, 168],[225, 168],[225, 169],[226, 169],[226, 170],[226, 171],[227, 171],[227, 172],[228, 172],[228, 173],[228, 174],[229, 174],[229, 175],[230, 175],[230, 176],[232, 176],[232, 177],[239, 177],[239, 176],[241, 176],[241, 175],[242, 175],[242, 174],[243, 174],[243, 173],[244, 173],[244, 172],[244, 171],[245, 171],[245, 170],[245, 169],[246, 169],[246, 168],[246, 167],[247, 167],[247, 166],[247, 165],[247, 164],[247, 163],[247, 162],[248, 162],[248, 161],[248, 160],[248, 159],[248, 158],[248, 157],[248, 156],[247, 156],[247, 155],[247, 154],[247, 153],[247, 152],[247, 151],[246, 151],[246, 150],[246, 149],[245, 149],[245, 148],[244, 148],[244, 147],[243, 147],[243, 146],[242, 146],[242, 145],[241, 145],[240, 144],[238, 143],[238, 144],[235, 144],[235, 145],[232, 145],[232, 146],[230, 146],[230, 147],[229, 147],[229, 148],[228, 148],[228, 149],[227, 149],[227, 150],[226, 150],[226, 151],[226, 152],[225, 152],[225, 153],[225, 154],[224, 154],[224, 155],[224, 156],[224, 157],[224, 158],[223, 158]]]},"properties":{"objectType":"annotation"}},{"type":"Feature","id":"e8145eec-9aa9-4271-ba7f-f23133770ebb","geometry":{"type":"Polygon","coordinates":[[[113, 59],[113, 60],[114, 60],[114, 61],[116, 61],[116, 62],[118, 62],[118, 63],[128, 63],[128, 62],[130, 62],[131, 61],[132, 61],[132, 60],[133, 60],[133, 59],[133, 58],[134, 58],[134, 57],[134, 56],[135, 56],[135, 55],[135, 54],[135, 53],[134, 53],[134, 52],[134, 51],[133, 51],[133, 50],[128, 50],[127, 51],[123, 51],[123, 52],[122, 52],[122, 53],[121, 53],[121, 54],[120, 54],[119, 55],[118, 56],[117, 56],[116, 57],[114, 57],[114, 58],[113, 59]]]},"properties":{"objectType":"annotation"}}]}