{"type":"FeatureCollection","features":[{"type":"Feature","id":"4e5812fb-6fe9-4f58-a86a-626884b8f31e","geometry":{"type":"Polygon","coordinates":[[[155, 200],[155, 201],[155, 202],[156, 203],[156, 204],[156, 205],[157, 205],[157, 206],[158, 206],[158, 207],[158, 208],[159, 208],[159, 209],[160, 209],[160, 210],[161, 210],[161, 211],[164, 211],[164, 212],[174, 212],[174, 211],[176, 211],[176, 210],[177, 210],[178, 209],[178, 208],[180, 208],[180, 207],[181, 207],[181, 206],[182, 206],[182, 205],[183, 205],[183, 204],[184, 204],[184, 203],[185, 203],[185, 202],[185, 201],[186, 201],[186, 200],[186, 199],[187, 199],[187, 198],[187, 197],[188, 196],[188, 195],[188, 194],[188, 193],[188, 192],[188, 191],[188, 190],[188, 189],[187, 191],[187, 190],[187, 189],[187, 188],[187, 187],[187, 186],[188, 186],[188, 185],[188, 184],[188, 183],[188, 182],[189, 182],[189, 181],[178, 181],[178, 182],[174, 182],[174, 183],[172, 183],[172, 184],[171, 184],[170, 185],[169, 185],[169, 186],[167, 186],[167, 187],[166, 187],[165, 188],[164, 188],[164, 189],[163, 189],[163, 190],[162, 190],[162, 191],[161, 191],[161, 192],[160, 192],[160, 193],[159, 193],[159, 194],[158, 194],[158, 195],[157, 195],[157, 196],[157, 197],[156, 197],[156, 198],[156, 199],[156, 200],[155, 200]]]},"properties":{"objectType":"annotation"}},{"type":"Feature","id":"78f5fd3e-0faa-445d-8879-b6d4745f5dd7","geometry":{"type":"Polygon","coordinates":[[[168, 155],[168, 156],[168, 157],[168, 158],[168, 159],[168, 160],[169, 160],[169, 161],[169, 162],[170, 162],[170, 163],[170, 164],[171, 164],[171, 165],[171, 166],[172, 166],[172, 167],[173, 167],[173, 168],[174, 168],[174, 169],[174, 170],[176, 170],[176, 171],[177, 171],[178, 170],[181, 170],[181, 169],[183, 169],[183, 168],[184, 168],[184, 167],[185, 167],[185, 166],[185, 165],[186, 165],[186, 164],[186, 163],[186, 162],[186, 161],[186, 160],[186, 159],[186, 158],[186, 157],[185, 157],[185, 156],[185, 155],[185, 154],[184, 154],[184, 153],[184, 152],[183, 152],[183, 151],[182, 151],[182, 150],[181, 150],[181, 149],[181, 148],[179, 148],[179, 147],[170, 147],[170, 148],[170, 149],[170, 150],[170, 151],[169, 151],[169, 152],[169, 153],[169, 154],[169, 155],[168, 155]]]},"properties":{"objectType":"annotation"}},{"type":"Feature","id":"6eb7e86b-019a-4b4b-89ec-5dff8e447f92","geometry":{"type":"Polygon","coordinates":[[[74, 244],[74, 245],[74, 246],[74, 247],[74, 248],[74, 249],[75, 249],[75, 250],[76, 250],[76, 251],[77, 251],[77, 252],[79, 252],[79, 253],[80, 253],[80, 252],[83, 252],[83, 251],[85, 251],[85, 250],[86, 250],[86, 249],[86, 248],[86, 247],[86, 246],[85, 246],[85, 245],[85, 244],[84, 244],[84, 243],[83, 243],[83, 242],[77, 242],[77, 243],[76, 243],[76, 244],[74, 244]]]},"properties":{"objectType":"annotation"}},{"type":"Feature","id":"8f9332b4-6679-4d36-88c8-f0b0de4d4a5d","geometry":{"type":"Polygon","coordinates":[[[87, 184],[87, 185],[87, 186],[87, 187],[88, 188],[88, 189],[88, 190],[89, 190],[89, 191],[90, 191],[90, 192],[92, 192],[92, 193],[94, 193],[94, 194],[96, 194],[96, 195],[101, 195],[101, 194],[103, 194],[103, 193],[105, 193],[105, 192],[105, 191],[105, 190],[105, 189],[104, 189],[104, 188],[104, 187],[104, 186],[104, 185],[103, 185],[103, 184],[102, 184],[102, 183],[101, 183],[101, 182],[100, 182],[100, 181],[99, 181],[99, 180],[92, 180],[92, 181],[90, 181],[90, 182],[89, 182],[89, 183],[88, 183],[88, 184],[87, 184]]]},"properties":{"objectType":"annotation"}},{"type":"Feature","id":"aa4df8ae-b63e-46d9-8694-ff3610f13fe5","geometry":{"type":"Polygon","coordinates":[[[5, 46],[5, 47],[5, 48],[5, 49],[5, 50],[5, 51],[6, 51],[6, 52],[7, 52],[7, 53],[11, 53],[11, 52],[13, 52],[13, 51],[14, 51],[15, 50],[16, 50],[16, 49],[17, 49],[17, 48],[20, 48],[20, 47],[22, 47],[23, 46],[24, 46],[24, 45],[24, 44],[25, 44],[25, 43],[25, 42],[26, 42],[26, 41],[26, 40],[26, 39],[25, 39],[25, 38],[24, 38],[24, 37],[23, 37],[23, 36],[22, 36],[22, 35],[21, 35],[21, 34],[20, 34],[20, 35],[18, 35],[18, 36],[15, 36],[15, 37],[13, 37],[13, 38],[12, 38],[12, 39],[10, 39],[10, 40],[9, 40],[9, 41],[8, 41],[8, 42],[7, 42],[7, 43],[7, 44],[6, 44],[6, 45],[6, 46],[5, 46]]]},"properties":{"objectType":"annotation"}}]}